Company Name,Company Address,District,Telephone Number,Latitude,Longitude
A-LIVELY COMMUNITY PHARMACY O/B ABERDEEN KAI-FONG WELFARE ASSOCIATION LIMITED( 良躍社區藥房 ),"SHOP NO. 114, G/F, WAH ON HOUSE, WAH FU (I) ESTATE,ABERDEEN,HK",ABERDEEN,35505460,22.2515558,114.1385928
ACP MEDICATION MANAGEMENT CENTRE O/B ACTIVECAREPHARMACY LIMITED( 明心大藥房藥物管理中心 ),"WORKSHOPS E2, E3 & E4, 19/F, WAH LOK INDUSTRIAL CENTRE, PHASE II, 31-35 SHAN MEI STREET,SHATIN,NT",SHATIN,39762668,22.398455,114.191027
AFFIANCE PHARMACY LIMITED( 誠德大藥房有限公司 ),"SHOP 7, GROUND FLOOR, ALBERT HOUSE, 26 CHENGTU ROAD,ABERDEEN,HK",ABERDEEN,25553337,22.248646,114.154863
APOLLO DISPENSARY( 宇宙大葯房 ),"SHOP B, G/F, 152 CASTLE PEAK ROAD,SHAM SHUI PO,KLN",SHAM SHUI PO,27255100,22.335843,114.1598878
ATHENA DISPENSARY O/B ATHENA DISPENSARY LIMITED( 春生厚藥房 ),"SHOP I, G/F & COCKLOFT, HING TAT MANSION, 351 NGAU TAU KOK ROAD,NGAU TAU KOK,KLN",NGAU TAU KOK,23899380,22.3148761,114.2227267
ATHENA DISPENSARY O/B ATHENA DISPENSARY LIMITED( 春生厚參茸中西藥房 ),"FLAT 306-307, PO KAN HOUSE, PO LAM ESTATE, TSEUNG KWAN O,NT",TSEUNG KWAN O,27118789,22.3248448,114.2559991
ATHENA DISPENSARY O/B ATHENA DISPENSARY LIMITED( 春生厚 ),"SHOP B012, GROUND FLOOR, CHING LONG SHOPPING CENTRE, KAI TAK, KOWLOON CITY,KLN",KOWLOON CITY,27590198,22.3307819,114.204406
BEST CHAIN PHARMACY LIMITED( 強鍵西藥房有限公司 ),"G/F , 100A CASTLE PEAK ROAD,YUEN LONG,NT",YUEN LONG,26631068,22.4443139,114.0291579
BEST HEALTH DISPENSARY O/B BEST HEALTH (HK) DISPENSARY LIMITED( 百鍵藥房 ),"G/F, NO. 47 FU HING STREET,SHEUNG SHUI,NT",SHEUNG SHUI,31240088,22.5039635,114.1269649
BO HONG DISPENSARY O/B BO HONG DISPENSARY COMPANY LIMITED( 寶康中西藥房 ),"G/F, 51 TEXACO ROAD,TSUEN WAN,NT",TSUEN WAN,24227778,22.3684907,114.1223717
BO ON DISPENSARY O/B BO ON COMPANY LIMITED( 寶安藥房 ),"G/F, WHITTY STREET COURT, 34 & 36 WHITTY STREET,SHEK TONG TSUI,HK",SHEK TONG TSUI,28661891,22.2865022,114.1365927
BO SHUN DISPENSARY O/B BO SHUN COMPANY LIMITED( 寶信藥房 ),"FLAT 104, 1/F, ISLAND PLACE , 500 KING'S ROAD,NORTH POINT,HK",NORTH POINT,31074885,22.2910676,114.2022772
BO TAI DISPENSARY O/B BO TAI COMPANY LIMITED( 寶泰藥房 ),"FLAT 1, PODIUM LEVEL 3, SCENEWAY PLAZA, LAM TIN,KLN",LAM TIN,27173368,22.307019,114.233491
BRIGHTON PHARMACY LIMITED( 寶萊大藥房有限公司 ),"G/F & M/F, 118 NGA TSIN WAI ROAD,KOWLOON CITY,KLN",KOWLOON CITY,23838511,22.3290697,114.1883725
BRIGHTON PHARMACY O/B BRIGHTON PHARMACY (SHOP 2) LIMITED( 寶萊大藥房 ),"SHOP UG065-66, UG/F, METRO CITY PLAZA 2, NO. 8 YAN KING ROAD,TSEUNG KWAN O,NT",TSEUNG KWAN O,34211045,22.3241364,114.2571874
BRILLIANT BRISK DISPENSARY LIMITED( 卓興大藥房有限公司 ),"G/F, 7 MA TAU KOK ROAD,TO KWA WAN,KLN",TO KWA WAN,27687322,22.322227,114.188728
BRILLIANT BRISK DISPENSARY O/B BRILLIANT BRISK DISPENSARY LIMITED( 卓興大藥房 ),"SHOP 4A, G/F, SITE 4, ABERDEEN CENTRE, ABERDEEN,HK",ABERDEEN,26586199,22.2483068,114.1524398
BRILLIANT DISPENSARY LIMITED( 卓興西藥房有限公司 ),"FLAT 3, G/F, HENG FA CHUEN WET MARKET STALLS, 100 SHING TAI ROAD,HENG FA CHUEN,HK",HENG FA CHUEN,28817823,22.2769838,114.2390763
BRILLIANT DISPENSARY O/B BRILLIANT DISPENSARY LIMITED( 卓興西藥房 ),"SHOP 402, L4, METROPLAZA, 223 HING FONG ROAD,KWAI CHUNG,NT",KWAI CHUNG,28180989,22.3574339,114.1261909
BUYCHEERS PHARMACY LIMITED( 品器藥房有限公司 ),"SHOP NO. 4, G/F, BELVEDERE SQUARE OF BELVEDERE GARDEN, PHASE 3, TSUEN WAN,NT",TSUEN WAN,23491933,22.3719097,114.1021828
C & M DISPENSARY O/B C & M DISPENSARY LIMITED( 華達中西藥房 ),"SHOP NO. 7, G/F, CHUNG AN BUILDING, 364 DES VOEUX ROAD WEST,SAI YING PUN,HK",SAI YING PUN,22394389,22.2869429,114.1376796
C & P PHARMACY LIMITED( 康城大藥房有限公司 ),"SHOP 6A, G/F, AUSTIN PLAZA, 83 AUSTIN ROAD,TSIM SHA TSUI,KLN",TSIM SHA TSUI,23771987,22.3033986,114.1710135
C. UNIVERSE MEDICINE & HEALTH CARE LIMITED( 華大保健藥業有限公司 ),"SHOP NO 123A, FIRST FLOOR, TEMPLE MALL SOUTH, NO 103 CHING TAK STREET,WONG TAI SIN,KLN",WONG TAI SIN,28922220,22.3413682,114.1942478
CARING COMMUNITY PHARMACY O/B THE HONG KONG HEALTH CARE FEDERATION LIMITED( 關愛社區藥房 ),"ROOM 802, 8/F, GOOD HOPE BUILDING, 612-618 NATHAN ROAD,MONG KOK,KLN",MONG KOK,25755807,22.3173731,114.1700381
CARITAS ST. FRANCIS PHARMACY O/B SAINT FRANCIS UNIVERSITY( 明愛聖方濟各藥房 ),"ROOM A316, 3/F, SAINT FRANCIS UNIVERSITY, 2 CHUI LING LANE,TSEUNG KWAN O,NT",TSEUNG KWAN O,37024418,22.3089111,114.2635572
CARY PHARMACY O/B RICH FUND TRADING LIMITED( 嘉利大藥房 ),"G/F, 26 TUNG SING ROAD,ABERDEEN,HK",ABERDEEN,28140575,22.2490683,114.1553357
CENTRAL UNIVERSE MEDICINE & HEALTH CARE LIMITED( 中大保健藥業有限公司 ),"SHOP N211, 2/F, TEMPLE MALL NORTH, UPPER WONG TAI SIN ESTATE, 136 LUNG CHEUNG ROAD,WONG TAI SIN,KLN",WONG TAI SIN,23220111,22.3420752,114.1925768
CENTRE DISPENSARY LIMITED( 正佳藥房有限公司 ),"G/F., 38 CENTRE STREET,SAI YING PUN,HK",SAI YING PUN,29144808,22.2872177,114.1422384
CENTURY PHARMACY LIMITED( 世紀中西大藥房有限公司 ),"SHOPS NOS. 7A & 7B, GROUND FLOOR, NO. 7 FA YUEN STREET,MONG KOK,KLN",MONG KOK,27717881,22.316973,114.171468
CEY PHARMACY LIMITED( 英輝大藥房有限公司 ),"SHOP 133, LEVEL 1, KWAI SHING EAST SHOPPING CENTRE, 63 KWAI SHING CIRCUIT,KWAI CHUNG,NT",KWAI CHUNG,90321431,22.3641144,114.1270786
CHAN MAN CHEUNG DISPENSARY( 陳萬昌中西葯房 ),"G/F, 105 SHEK YAM ROAD, SHEUNG KWAI CHUNG,KWAI CHUNG,NT",KWAI CHUNG,24237441,22.3700092,114.139124
"CHERRY MEGA DISPENSARY CO., LIMITED( 莉滿葯房有限公司 )","SHOP 1, G/F, CHEERRICK BUILDING, 61-69 SAU FU STREET,YUEN LONG,NT",YUEN LONG,24439195,22.4449715,114.0262916
CHERRY MEGA DISPENSARY O/B TECH POWER LIMITED( 莉滿葯房 ),"FLAT C, G/F, ON LEE BUILDING, NO. 104 ON NING ROAD,YUEN LONG,NT",YUEN LONG,24773390,22.4463037,114.0244797
CHEUNG CHOON CHEMIST( 長春正行中西葯房 ),"G/F, 89-91 TAK KU LING ROAD,KOWLOON CITY,KLN",KOWLOON CITY,23832755,22.330424,114.191468
CHEUNG CHOON DISPENSARY( 長春中西藥房 ),"G/F, 11 MUT WAH STREET,KWUN TONG,KLN",KWUN TONG,23410560,22.3149905,114.2240704
CHEUNG CHOON DISPENSARY O/B CHEUNG CHOON DISPENSARY GROUP LIMITED( 長春參茸中西藥房 ),"G/F., NO. 77 HO PUI STREET,TSUEN WAN,NT",TSUEN WAN,26119797,22.3683277,114.1164634
CHEUNG FUNG DISPENSARY AND SUPERMARKET LIMITED( 未有登記中文名稱 ),"SHOP F14A-15A, TELFORD PLAZA PHASE 1, KOWLOON BAY,KLN",KOWLOON BAY,27546000,22.3233216,114.2135647
CHEUNG HING DISPENSARY COMPANY LIMITED( 祥興西藥房有限公司 ),"G/F, 201 PEI HO STREET,SHAM SHUI PO,KLN",SHAM SHUI PO,27782227,22.3324115,114.1643463
CHEUNG KONG TAK FAT DISPENSARY O/B CHEUNG KONG TAK FAT MEDICINE COMPANY LIMITED( 長江德發中西藥房 ),"SHOP NO. 53, G/F, HARMONY GARDEN, SIU SAI WAN,HK",SIU SAI WAN,25051218,22.26466,114.24821
CHEUNG SHING DISPENSARY LIMITED( 長城中西藥房有限公司 ),"SHOP NO. 35, LEVEL 3, HILTON PLAZA, 3-9 SHATIN CENTRE STREET,SHATIN,NT",SHATIN,26496992,22.3792753,114.1867445
CHEUNG SHING DISPENSARY O/B TECHION SCOPE LIMITED( 長城國產藥業西葯房 ),"FLAT 204A-205A , 2/F, WO CHE PLAZA, WO CHE ESTATE, SHATIN,NT",SHATIN,26975297,22.3859318,114.1931953
CHEUNG TAI DISPENSARY (H.K.) LIMITED( 長泰西藥房(香港)有限公司 ),"GROUND FLOOR & MEZZANINE FLOOR, HING LOONG BUILDING, 8A WING LOK STREET,SHEUNG WAN,HK",SHEUNG WAN,25452561,22.2859739,114.1530248
CHEUNG WAH DISPENSARY LIMITED( 祥華大藥房有限公司 ),"G/F & COCKLOFT, 39 HA HEUNG ROAD,TO KWA WAN,KLN",TO KWA WAN,23623209,22.3167983,114.1887464
CHEUNG YICK PHARMACY( 祥益西藥房 ),"SHOP NO. L431, LEUNG KING PLAZA, TUEN MUN,NT",TUEN MUN,24555205,22.4062926,113.9628469
CHI LOK DISPENSARY O/B CHI LOK DISPENSARY LIMITED( 置樂大藥房 ),"PORTION OF SHOP 84 AND PORTION OF SHOP 21A, G/F, WAH LOK MANSION, 2 TSING SHAN SQUARE,TUEN MUN,NT",TUEN MUN,25233272,22.3888073,113.9793187
CHI MAN PHARMACY O/B SUN CHING MEDICINE COMPANY LIMITED( 智文藥房 ),"FLAT 507, 5/F, TSZ WAN SHAN SHOPPING CENTRE, TSZ WAN SHAN,KLN",TSZ WAN SHAN,24637101,22.3478074,114.2004679
CHI MAN PHARMACY O/B SUN SHING MEDICINE COMPANY LIMITED( 智文藥房 ),"SHOP 15, LEVEL 1, SOUTH WING, TREND PLAZA, TUEN MUN,NT",TUEN MUN,24042220,22.3922083,113.9758571
CHI MAN PHARMACY O/B SUN SOURCE MEDICINE COMPANY LIMITED( 智文藥房 ),"SHOP 25E2, LEVEL 3, SHATIN PLAZA, SHATIN,NT",SHATIN,23220960,22.3833614,114.1895339
CHI MAN PHARMACY O/B SUN WUI MEDICINE COMPANY LIMITED( 智文藥房 ),"SHOP 2-3, FU HO BUILDING, 3-7 KAU YUK ROAD,YUEN LONG,NT",YUEN LONG,28335880,22.4427066,114.02792
CHI SHING DISPENSARY( 志成大葯房 ),"SHOP A, G/F & COCKLOFT, 138 HOI PA STREET,TSUEN WAN,NT",TSUEN WAN,24223288,22.371057,114.1169812
CHI SHING DISPENSARY O/B CHI SHING DISPENSARY LIMITED( 志成大藥房 ),"G/F, SHING ON BUILDING, 46 HAM TIN STREET,TSUEN WAN,NT",TSUEN WAN,26124532,22.369675,114.1177614
CHI SHING DISPENSARY O/B FLYING ROSS LIMITED( 志成大藥房 ),"SHOP 1, G/F & M/F, DUNG FAT MANSION, 10-20 TAI HO ROAD,TSUEN WAN,NT",TSUEN WAN,25169919,22.3727754,114.1157971
CHINA DISPENSARY O/B PROFIT WINNER INC LIMITED( 中國藥房 ),"FLAT 57-59, G/F, BLOCK B, WALTON ESTATE, 343 CHAI WAN ROAD,CHAI WAN,HK",CHAI WAN,28960016,22.2641376,114.2399388
CHINA DISPENSARY O/B VAST GENESIS LIMITED( 中國藥房 ),"SHOP NOS. 22 & 42, G/F, HARMONY GARDEN, 9 SIU SAI WAN ROAD,CHAI WAN,HK",CHAI WAN,26688152,22.2645905,114.2484139
CHING NOK DISPENSARY LIMITED( 晴諾藥房有限公司 ),"G/F, 273 SHA TSUI ROAD,TSUEN WAN,NT",TSUEN WAN,2426 6888,22.3697287,114.1169916
CHIU CHOW DISPENSARY LIMITED( 潮州大藥房有限公司 ),"SHOP 5 & 6, G/F, 18-20 MONGKOK ROAD,MONG KOK,KLN",MONG KOK,23946143,22.3212028,114.1698059
CHIU FAT DISPENSARY O/B WELLPONDEN COMPANY LIMITED( 潮發葯房 ),"G/F, 88 NGA TSIN WAI ROAD,KOWLOON CITY,KLN",KOWLOON CITY,23836069,22.3290873,114.1896723
CHIU HING DISPENSARY( 潮興大藥房 ),"G/F, NO. 166 SHAU KEI WAN ROAD,SHAU KEI WAN,HK",SHAU KEI WAN,25698379,22.2809449,114.2227326
CHIU LUEN DISPENSARY O/B UPWARD BILLION LIMITED( 潮聯藥房 ),"G/F, 243 TO KWA WAN ROAD,TO KWA WAN,KLN",TO KWA WAN,23823616,22.3160933,114.1897784
CHIU SHING PHARMACY CO. O/B SUNNY REGENCY LIMITED( 潮盛大藥房 ),"SHOP A, G/F, 101 CHUEN LUNG STREET,TSUEN WAN,NT",TSUEN WAN,24787798,22.3696953,114.115638
CHOI WAN DISPENSARY O/B CHOI WAN MEDICINE CO LTD( 彩運西藥房 ),"SHOP A308, CHOI WAN SHOPPING CENTRE (PHASE 2), CHOI WAN (I) ESTATE,NGAU CHI WAN,KLN",NGAU CHI WAN,27596468,22.3335347,114.2132322
CHONG SHING DISPENSARY O/B CHONG SHING MEDICINE LIMITED( 創盛中西大藥房 ),"SHOP B ON G/F. & FLAT B ON M/F., LEE KWAN BUILDING, 40-46 ARGYLE STREET,MONG KOK,KLN",MONG KOK,2520 0663,22.3193741,114.170758
CHUEN CHEONG DISPENSARY O/B MACRO VICTOR LIMITED( 全昌藥房 ),"SHOP 4, G/F, WELLAND BUILDING, 368 QUEEN'S ROAD CENTRAL,SHEUNG WAN,HK",SHEUNG WAN,28512839,22.2858348,114.149091
CHUEN FUNG DISPENSARY LIMITED( 銓豐大藥房有限公司 ),"SHOP N61B, MOUNT STERLING MALL, 10-16 LAI WAN ROAD, MEI FOO SUN CHUEN,MEI FOO,KLN",MEI FOO,22434511,22.337744,114.138095
CHUN HING DISPENSARY O/B CHUN HING 2005 DEVELOPMENT LIMITED( 振興中西藥房 ),"G/F, 174 SHAU KEI WAN ROAD,SHAU KEI WAN,HK",SHAU KEI WAN,"25689628, 25689082",22.280833,114.222984
CHUN ON DISPENSARY COMPANY LIMITED( 俊安西藥房有限公司 ),"SHOP NO. 4, 121 TUNG CHOI STREET,MONG KOK,KLN",MONG KOK,23972982,22.320368,114.170191
CHUN SANG DISPENSARY( 俊生中西藥房 ),"SHOP NO. 2, G/F, QUEEN'S HILL SHOPPING CENTRE, QUEEN'S HILL ESTATE, FANLING,NT",FANLING,26612133,22.5035246,114.1566978
CHUN WANG DISPENSARY O/B WING WAH MEDICINE (HONG KONG) LIMITED( 駿宏參茸中西藥房 ),"SHOP NO. SG24, T TOWN SOUTH, TIN SHUI WAI,NT",TIN SHUI WAI,22531008,22.4615876,113.9977898
CHUNG CHING DISPENSARY LTD( 中正葯房(有限公司) ),"UNITS 801-803, 805-813, 815-820, 8/F, BLOCK B, REGENT CENTRE, 70 TA CHUEN PING STREET,KWAI CHUNG,NT",KWAI CHUNG,37608300,22.3679473,114.1382323
CHUNG MEI DISPENSARY( 中美葯房 ),"G/F, CHEONG MING BUILDING, 80 ARGYLE STREET,MONG KOK,KLN",MONG KOK,23983021,22.3195508,114.1721393
CHUNG SHING DISPENSARY LIMITED( 忠誠大藥房有限公司 ),"SHOP B, G/F, YUE MAN MANSION, 304-308 NGAU TAU KOK ROAD,KWUN TONG,KLN",KWUN TONG,27631939,22.3142816,114.2230373
CHUNG SHUN DISPENSARY O/B CHUNG SHUN DRUGSTORE LIMITED( 忠信葯房 ),"G/F & M/F, NO. 36 WUHU STREET & M/F & REAR PORTION, NO. 38 WUHU STREET,HUNG HOM,KLN",HUNG HOM,23301661,22.3071084,114.1865258
CHUNG TAI DISPENSARY O/B SUPER STAR INVESTMENT LIMITED( 中大西葯房 ),"G/F, 107 HIP WO STREET,KWUN TONG,KLN",KWUN TONG,23459919,22.315697,114.225871
CHUNG WAH PHARMACY LIMITED( 中華中西藥房有限公司 ),"SHOP L2, FUNG YUEN BUILDING, 388 SHAU KEI WAN ROAD,SHAU KEI WAN,HK",SHAU KEI WAN,25604127,22.2773645,114.2270455
CIVIL HEALTH SOCIETY ASSOCIATION PHARMACY O/B CIVIL HEALTH SOCIETY ASSOCIATION LIMITED( 社康藥房 ),"DISPENSARY OF SHOP 70A, MOUNT STERLING MALL, MEI FOO SUN CHUEN, MEI FOO,KLN",MEI FOO,2762 9228,22.3381805,114.1385739
CLOVER DISPENSARY( 高華大葯房 ),"G/F, 695 NATHAN ROAD,MONG KOK,KLN",MONG KOK,"23934561, 23952647",22.3199533,114.1690469
COMBO PHARMACY LIMITED( 康寶中西大藥房有限公司 ),"SHOP 101, G/F, BLOCK 9, RIVIERA GARDENS, TSUEN WAN,NT",TSUEN WAN,27352288,22.3760685,114.112651
COMEWELL PHARMACY O/B COMEWELL PHARMACY LIMITED( 康城西藥房 ),"FLAT B, G/F, LIN FAI HOUSE, 116 HOI PA STREET, 32-34  CHUEN LUNG STREET,TSUEN WAN,NT",TSUEN WAN,26151030,22.37137,114.1164143
CONRICH PHARMACY LIMITED( 康富中西大藥房有限公司 ),"G/F, 272 KI LUNG STREET,SHAM SHUI PO,KLN",SHAM SHUI PO,23181226,22.3296273,114.1611645
CONROY P+C PHARMACY O/B HUGE TOP CORPORATION LIMITED( 康萊 ),"FLAT 116, 1/F, FU TUNG PLAZA, FU TUNG ESTATE, 6 FU TUNG STREET,TUNG CHUNG,NT",TUNG CHUNG,39252038,22.2889179,113.9427116
"CONROY PHARMACY O/B GLOBAL PRECISE PRODUCTS TRADING CO., LIMITED( 康萊 )","SHOP 51, G/F, SAI KUNG COURT, 22-40 FUK MAN ROAD,SAI KUNG,NT",SAI KUNG,31059966,22.3826742,114.272321
CUHK MEDICAL CENTRE O/B CUHK MEDICAL CENTRE LIMITED( 香港中文大學醫院 ),"G/F, OUTPATIENT PHARMACY, 9 CHAK CHEUNG STREET,SHATIN,NT",SHATIN,39466413,22.4134577,114.2113721
CYCLOTRON PHARMACEUTICAL CENTRE O/B ST. TERESA'S HOSPITAL( 聖德肋撒醫院迴旋加速器藥物合成中心 ),"G/F & 1/F, SOUTH WING, 327 PRINCE EDWARD ROAD,KOWLOON CITY,KLN",KOWLOON CITY,22003182,22.3269005,114.1852484
DAN DAN HEALTH O/B DAN DAN MALL LIMITED( 丹尼 ),"SHOP A067, LEVEL 1, UPTOWN PLAZA, TAI PO,NT",TAI PO,26501221,22.443554,114.169348
DAN DAN HEALTH O/B DAN DAN MALL LIMITED( 丹尼 ),"SHOP NO. 24 & 42A, LEVEL 3, SHATIN PLAZA, SHATIN,NT",SHATIN,26281028,22.3833614,114.1895339
DANDAN O/B DAN DAN HEALTH (WHAMPOA) LIMITED( 丹尼 ),"FLAT G8A&8C, G/F, AMAZING WORLD (SITE1) THE WHAMPOA, HUNG HOM,KLN",HUNG HOM,2880 0219,22.3047243,114.1903547
DANIEL PHARMACY LIMITED( 盈富藥房有限公司 ),"SHOP 46, CHEERFUL GARDEN, SIU SAI WAN,HK",SIU SAI WAN,25050811,22.262502,114.250285
DCH AURIGA MANAGEMENT LIMITED( 奧利佳管理有限公司 ),"PHARMACY ROOM, 1/F, WYLER CENTRE 1, 202-210 TAI LIN PAI ROAD,KWAI CHUNG,NT",KWAI CHUNG,36192691,22.3574175,114.1306512
DIAMOND HILL FAMILY PHARMACY O/B CHRISTIAN FAMILY SERVICE CENTRE( 鑽石山家庭藥房 ),"SHOP 1A, MAXGRAND PLAZA, 3 TAI YAU STREET,SAN PO KONG,KLN",SAN PO KONG,25712528,22.338663,114.200263
DO ON (F. W.) DISPENSARY LIMITED( 道安(富榮)藥房有限公司 ),"FLAT C41A, 1/F, KINGSWOOD RICHLY PLAZA, 1 TIN WU ROAD,TIN SHUI WAI,NT",TIN SHUI WAI,24450382,22.451691,114.0013312
DO ON (F. W.) DISPENSARY O/B DO ON (F. W.) DISPENSARY LIMITED( 道安(富榮)藥房 ),"SHOP 223-224, 2/F, TIN CHAK SHOPPING CENTRE, TIN CHAK ESTATE, TIN SHUI WAI,NT",TIN SHUI WAI,24863928,22.4682969,113.99881
DRAGON PHARMACY COMPANY LIMITED( 金龍大藥房有限公司 ),"SHOP A-B, G/F, NO.186 APLIU STREET,SHAM SHUI PO,KLN",SHAM SHUI PO,21421133,22.3300963,114.162359
DUN HING DISPENSARY O/B SUNNY TALENT TRADING LIMITED( 登興大藥房 ),"SHOP NO. A, G/F, 25-27 WOOSUNG STREET,JORDAN,KLN",JORDAN,28990428,22.307901,114.1706998
E-CARE DISPENSARY O/B E-CARE HOLDINGS LIMITED( 卓凱中西大藥房 ),"SHOP NO. 4, G/F, SUN CHUI SHOPPING CENTRE, TAI WAI,NT",TAI WAI,23259388,22.3693641,114.1812707
EAGLE DISPENSARY LIMITED( 大鵬藥房有限公司 ),"SHOP C, G/F, 1-7 LUEN ON STREET,FANLING,NT",FANLING,25514048,22.4991931,114.1442135
EAST OCEAN PHARMACY LIMITED( 東海中西藥房有限公司 ),"FLAT/RM 103, SHUI CHUEN O PLAZA, SHUI CHUEN O ESTATE, SHATIN,NT",SHATIN,24395052,22.3736178,114.1969985
EASTLE DISPENSARY LIMITED( 東城藥房有限公司 ),"SHOP 215, EAST POINT CITY, 8 CHUNG WA ROAD,HANG HAU,NT",HANG HAU,35291388,22.3165218,114.264659
EASTLE DISPENSARY O/B EASTLE DISPENSARY LIMITED( 東城藥房 ),"SHOP NO. G11 AND A8 ON G/F, TAI ON BUILDING, NOS. 57-87 SHAU KEI WAN ROAD,SAI WAN HO,HK",SAI WAN HO,35800608,22.2828742,114.2220997
EC PHARMACY COMPANY LIMITED( 大師藥房有限公司 ),"SHOP NOS. 215 & 216, LEVEL 2, CHELSEA HEIGHTS , 1 SHEK PAI TAU PATH,TUEN MUN,NT",TUEN MUN,31623066,22.400454,113.9738363
EUROMED DISPENSARY COMPANY LIMITED( 歐冠大藥房有限公司 ),"SHOP NOS. 35-36, OCEAN WALK , 168-236 WU CHUI ROAD,TUEN MUN,NT",TUEN MUN,26909096,22.3724946,113.96677
EVER SUCCESS DISPENSARY LIMITED( 峻業藥房有限公司 ),"G/F & COCKLOFT, 50 BELCHER'S STREET,KENNEDY TOWN,HK",KENNEDY TOWN,23772889,22.2826224,114.1292886
EVER-BEST DRUG STORE O/B SINO GLAMOUR LIMITED( 藝海蔘茸西藥房 ),"G/F, FUNG WONG NEW VILLAGE, 16 WAN FUNG STREET,WONG TAI SIN,KLN",WONG TAI SIN,23276245,22.344309,114.1980903
FAMOUS PHARMACY LIMITED( 信譽藥房有限公司 ),"SHOP D, GROUND FLOOR, LUEN WAI APARTMENT, 136 BELCHER'S STREET,KENNEDY TOWN,HK",KENNEDY TOWN,23892328,22.2821451,114.1270746
FAMOUS UNIVERSAL PHARMACY LIMITED( 信譽環球藥房有限公司 ),"G/F, 21 KUK TING STREET,YUEN LONG,NT",YUEN LONG,24784868,22.4451275,114.030035
FANDA O/B HEALTH GUARD PHARMACY LIMITED( 達成 ),"SHOP B2, G/F, GOLDEN CROWN COURT, NOS. 66-70 NATHAN ROAD,TSIM SHA TSUI,KLN",TSIM SHA TSUI,"23012872, 23668337,",22.2977712,114.1724087
FANDA PERFUME CO LTD( 達成香水有限公司 ),"SHOP B, G/F, WORLD WIDE HOUSE , 19 DES VOEUX ROAD CENTRAL,CENTRAL,HK",CENTRAL,25266623,22.2825285,114.1578668
FANDA PERFUME CO LTD( 達成香水有限公司 ),"SHOP 7, G/F, MIRADOR MANSION , 60A NATHAN ROAD,TSIM SHA TSUI,KLN",TSIM SHA TSUI,23666617,22.2972567,114.1726391
FIRST-PRO PHARMACY AND HEALTH CENTER LIMITED( 一寶藥房及保健中心有限公司 ),"SHOP 1, G/F, CHEUNG FAT BUILDING, 32C YU KING SQUARE,YUEN LONG,NT",YUEN LONG,24422208,22.4440625,114.027987
FOOK HING DISPENSARY O/B FOOK HING SHING COMPANY LIMITED( 福興大藥房 ),"SHOP G181A, G/F, AMOY GARDENS PHASE II, 77 NGAU TAU KOK ROAD,KOWLOON BAY,KLN",KOWLOON BAY,23888502,22.3244614,114.2163021
FORTUNE PHARMACY O/B H & O BUMPER LIMITED( 富豐大藥房 ),"G/F , 48 BELCHER'S STREET,KENNEDY TOWN,HK",KENNEDY TOWN,28167003,22.2826998,114.1293075
FU DA PHARMACY LIMITED( 富大西藥房有限公司 ),"G/F, LUEN HONG BUILDING, 320 KI LUNG STREET,SHAM SHUI PO,KLN",SHAM SHUI PO,23886102,22.3304029,114.1602614
FU GOLD PHARMACY COMPANY LIMITED( 富高西藥房有限公司 ),"SHOP 3, G/F, PUI KAM HOUSE, NOS. 106/112 KWONG FUK ROAD,TAI PO,NT",TAI PO,27565868,22.4480192,114.1679481
FU HONG DISPENSARY GROUP LIMITED( 富康中西藥房集團有限公司 ),"SHOP 516, 5/F, TSZ WAN SHAN SHOPPING CENTRE, 23 YUK WAH STREET,TSZ WAN SHAN,KLN",TSZ WAN SHAN,34869966,22.3478074,114.2004679
FU MING DISPENSARY O/B BEST HILL HOLDINGS LIMITED( 富明西藥房 ),"SHOP A , G/F , 265-267 YU CHAU STREET ,SHAM SHUI PO,KLN",SHAM SHUI PO,27083318,22.3299564,114.1612007
FU MING DISPENSARY O/B BRILLIANT MEDAL LIMITED( 富明西藥房 ),"G/F, 308 CASTLE PEAK ROAD,CHEUNG SHA WAN,KLN",CHEUNG SHA WAN,27259693,22.338278,114.156817
FU MING DISPENSARY O/B FORTUNE DEVELOPMENT HOLDINGS LIMITED( 富明西藥房 ),"SHOP 2, G/F, 83 WAN CHAI ROAD,WAN CHAI,HK",WAN CHAI,28388872,22.2763094,114.1748452
FU MING DISPENSARY O/B FU SHING INVESTMENT (H.K.) LIMITED( 富明中西藥房 ),"SHOP A, G/F, LAI MING HOUSE, 54-58 TAI WAI ROAD,TAI WAI,NT",TAI WAI,26998482,22.3748487,114.1780963
FU ON PHARMACY LIMITED( 富安西葯房有限公司 ),"G/F, 19 ARGYLE STREET,MONG KOK,KLN",MONG KOK,23819577,22.319167,114.167366
FU TAI DISPENSARY LIMITED( 富泰藥房有限公司 ),"GROUND FLOOR AND COCKLOFT OF NO. 24 CENTRE STREET,SAI YING PUN,HK",SAI YING PUN,27839988,22.2875069,114.1422071
FU TAI DISPENSARY LIMITED( 富泰藥房有限公司 ),"SHOP NO. 2 ON GROUND FLOOR, HUNG YAT BUILDING, NOS. 11, 11A, 13 & 13A NORTH POINT ROAD,NORTH POINT,HK",NORTH POINT,25100551,22.290998,114.1964413
FU WAH DISPENSARY LIMITED( 富華西藥房有限公司 ),"G/F, 141 KWEILIN STREET,SHAM SHUI PO,KLN",SHAM SHUI PO,23876282,22.331572,114.162071
FU YEE PHARMACY LIMITED( 富怡藥房有限公司 ),"SHOP 52 & 53, G/F, CHEERFUL GARDEN , 23 SIU SAI WAN ROAD,SIU SAI WAN,HK",SIU SAI WAN,3598 8982,22.2628253,114.2498465
FU YU PHARMACY LIMITED( 富裕中西藥房有限公司 ),"SHOP NO. 1A, G/F, NO. 83 WAN CHAI ROAD,WAN CHAI,HK",WAN CHAI,28611885,22.2763094,114.1748452
"FULL DA PHARMACY CO., LIMITED( 富達藥房有限公司 )","SHOP NOS. F124 & F125A, 1/F, NAM CHEONG PLACE, FU CHEONG ESTATE, SHAM SHUI PO,KLN",SHAM SHUI PO,28660328,22.3263938,114.1605
FULL HONG PHARMACY O/B MILLION EARN (HONG KONG) LIMITED( 富康大藥房 ),"GROUND FLOOR INCLUDING COCKLOFT, 17 STONE NULLAH LANE,WAN CHAI,HK",WAN CHAI,28920411,22.2755685,114.173561
FUNG SANG PHARMACY O/B MUN YU DRUG CO LIMITED( 豐笙藥房 ),"SHOP E, G/F & MEZZANINE FLOOR, HUNG HUM MANSION, NO 46,46A,48,50,52,54,56 AND 56A WUHU STREET,HUNG HOM,KLN",HUNG HOM,35639095,22.307355,114.186137
FUNG TAT DISPENSARY (HONG KONG) COMPANY LIMITED( 豐達西葯房(香港)有限公司 ),"SHOP 22, G/F, YICK FAT BUILDING, 6 YAU MAN STREET,QUARRY BAY,HK",QUARRY BAY,25637968,22.2845353,114.2129281
FUNG TAT DISPENSARY COMPANY LIMITED( 豐達西藥房有限公司 ),"SHOP B2 & C1, G-12, G/F, 79 SHAUKIWAN ROAD,SHAU KEI WAN,HK",SHAU KEI WAN,28859321,22.2769626,114.229535
FUXING SHUNXI PHARMACY COSMETICS COMPANY LIMITED( 福興順西藥房化妝品有限公司 ),"FLAT 3, 3/F, SUN KWAI HING PLAZA, KWAI CHUNG,NT",KWAI CHUNG,28810960,22.363091,114.1314621
GLENEAGLES DISPENSARY O/B GHK HOSPITAL LIMITED( 港怡藥房 ),"G/F , TOWER A, GLENEAGLES HOSPITAL HONG KONG, 1 NAM FUNG PATH,WONG CHUK HANG,HK",WONG CHUK HANG,31539046,22.2515672,114.1763966
GLOBAL MEDICAL SOLUTIONS HONG KONG LIMITED( 香港新吉美碩股份有限公司 ),"UNIT 11-12, 18/F, WAH WAI CENTRE, 38-40 AU PUI WAN STREET,FO TAN,NT",FO TAN,25629516,22.400112,114.1927027
GLOBAL PHARMACY LIMITED( 仁安葯房有限公司 ),"GROUND FLOOR & COCKLOFT OF POTTINGER HOUSE, NO. 26 POTTINGER STREET,CENTRAL,HK",CENTRAL,31840623,22.2831507,114.1558445
GODWELL DISPENSARY & COSMETIC LIMITED( 金英化粧葯房有限公司 ),"G/F, JOHNSON CENTRE, NO. 13 HAU FOOK STREET,TSIM SHA TSUI,KLN",TSIM SHA TSUI,23666094,22.2995679,114.1738118
GOLDEN FAME DISPENSARY LIMITED( 金譽西藥房有限公司 ),"SHOP A117, UG/F, CHOI WAN SHOPPING CENTRE, PHASE 2, 45 CLEAR WATER BAY ROAD,NGAU CHI WAN,KLN",NGAU CHI WAN,27892182,22.333113,114.2154706
GOLDEN PEAK PHARMACY O/B GOLDEN PEAK PHARMACY LIMITED( 高峰藥房 ),"SHOP A2, G/F, 89 SAI YEE STREET,MONG KOK,KLN",MONG KOK,28860728,22.31947,114.17151
GOLDEN STAR DISPENSARY LIMITED( 金星西藥房有限公司 ),"G/F, 232 SHAU KEI WAN ROAD,SHAU KEI WAN,HK",SHAU KEI WAN,25692525,22.280237,114.2243941
GOOD HEALTH DISPENSARY LIMITED( 康傑藥房有限公司 ),"SHOP 10, G/F, HONOUR HOUSE, 375, 375A, 377, 377A, 379A & 381 NATHAN ROAD, 24 KANSU STREET & 2-10 WOOSUNG STREET,JORDAN,KLN",JORDAN,24658808,22.3082762,114.1711017
GOOD VIEW DISPENSARY O/B HONEST 2000 LIMITED( 永佳大藥房 ),"G/F, 126 PEI HO STREET,SHAM SHUI PO,KLN",SHAM SHUI PO,27294646,22.3317606,114.1642325
GRAND ROYAL DISPENSARY O/B GRAND ROYAL DISPENSARY LIMITED( 尚御藥房 ),"SHOP NOS. 338 AND 340, THIRD FLOOR , CHOI CHU HOUSE, CHOI YUEN ESTATE, CHOI YUEN ROAD,SHEUNG SHUI,NT",SHEUNG SHUI,31240238,22.5006729,114.1257942
GREAT PHARMACY LIMITED( 宏鍵藥房有限公司 ),"SHOP 26, LEVEL 1, LUNG FUNG GARDEN, NO. 33 LUNG SUM AVENUE,SHEUNG SHUI,NT",SHEUNG SHUI,28400223,22.502815,114.1294623
H.K.S.K.H. LADY MACLEHOSE COMMUNITY PHARMACY O/B H.K.S.K.H. LADY MACLEHOSE CENTRE( 慈惠社區藥房 ),"COMMUNITY PHARMACY, GROUND FLOOR, KWAI WAH BUILDING, 11 TAI LOONG STREET,KWAI CHUNG,NT",KWAI CHUNG,26191903,22.3651215,114.1370807
H2 PHARMACY O/B HEALTHVISION (ASIA) LIMITED( 未有登記中文名稱 ),"SHOP 103D, 1/F, STAR HOUSE, NO. 3 SALISBURY ROAD,TSIM SHA TSUI,KLN",TSIM SHA TSUI,31519888,22.2944227,114.1687054
HANG LEE DISPENSARY( 恒利大藥房 ),"SHOP 232-233, 2/F, SAND MARTIN HOUSE, SHA KOK ESTATE , 5 SHA KOK STREET,SHATIN,NT",SHATIN,26477112,22.3775971,114.1942437
HANG SENG DISPENSARY LIMITED( 恒生中西參茸藥房有限公司 ),"G/F, 270 CASTLE PEAK ROAD,CHEUNG SHA WAN,KLN",CHEUNG SHA WAN,23872349,22.337734,114.15746
HANG SHING DISPENSARY & COSMETICS LIMITED( 恒誠大藥房化粧品有限公司 ),"PORTION OF SHOP C & D (SHOP 2), G/F, CHEONG LING MANSION, 3-13  NULLAH ROAD,MONG KOK,KLN",MONG KOK,26285118,22.323743,114.1693183
HANG SHING DISPENSARY LIMITED( 亨城大藥房有限公司 ),"G/F, NO. 27 MONGKOK ROAD,MONG KOK,KLN",MONG KOK,23926863,22.3203048,114.1673272
HANG SHUN PHARMACY O/B ELITE FOCUS INTERNATIONAL LIMITED( 恒信大藥房 ),"G/F, 7B O'BRIEN ROAD,WAN CHAI,HK",WAN CHAI,25743962,22.2773162,114.1735298
HANG WAI PHARMACY O/B UNITED PEARL LIMITED( 恒威大藥房 ),"G/F, 64 CHUEN LUNG STREET,TSUEN WAN,NT",TSUEN WAN,24050087,22.3709717,114.1161922
HAPPINESS DISPENSARY O/B NEW WINS FUN LIMITED( 幸福中西大藥房 ),"G/F, YUEN KING BUILDING, NO. 51A SHAN TUNG STREET,MONG KOK,KLN",MONG KOK,23548288,22.3178739,114.1704562
HEALTH - MED PHARMACY( 健康百葯葯房 ),"SHOP A, G/F, NO. 1 SAN LOK STREET,SHEUNG SHUI,NT",SHEUNG SHUI,21450016,22.503673,114.12737
HEALTH CARE DISPENSARY COMPANY LIMITED( 健怡康藥房有限公司 ),"G/F, NO. 1069 CANTON ROAD,MONG KOK,KLN",MONG KOK,31885572,22.3194832,114.1669695
HEALTH IN ACTION LIMITED( 醫護行者有限公司 ),"PORTION OF 901, MILLENNIUM TRADE CENTRE, 54-56 KWAI CHEONG ROAD,KWAI CHUNG,NT",KWAI CHUNG,36129515,22.3634552,114.1325996
HEALTH PEACE PHARMACY O/B ULTRA ELEGANT LIMITED( 德康大藥房 ),"SHOP 3 & 4 ON G/F, 99 HENNESSY ROAD,WAN CHAI,HK",WAN CHAI,39043577,22.2777315,114.1719829
HEALTH UNION COMMUNITY PHARMACY O/B HONG KONG FEDERATION OF TRADE UNIONS WORKERS' MEDICAL CLINICS ( 康盈坊社區藥房 ),"UNIT B1, G/F, FOU WAH CENTRE, 210 CASTLE PEAK ROAD,TSUEN WAN,NT",TSUEN WAN,2457 0811,22.3729197,114.118342
HEALTHCARE PHARMACY (CHAIN) CO LIMITED( 寶健大藥房(連鎖)有限公司 ),"SHOP NG07, G/F, COMM/CAR PARK BLK (T TOWN NORTH), TIN YUET ESTATE, 33 & 39 TIN WAH ROAD,TIN SHUI WAI,NT",TIN SHUI WAI,23238232,22.4623245,113.9977298
HEALTHCARE PHARMACY (HK) CO LIMITED( 寶健大藥房(香港)有限公司 ),"SHOP NO. 139, +WOO PHASE 1, 12-18 TIN YAN ROAD,TIN SHUI WAI,NT",TIN SHUI WAI,23232032,22.4575521,114.0027222
HEALTHCARE PHARMACY (SHATIN) CO LIMITED( 寶健大藥房(集團)有限公司 ),"SHOPS NOS. 342, 342A & 342B, ON LEVEL 3, MA ON SHAN PLAZA, SHATIN,NT",SHATIN,23232920,22.4253222,114.2313931
HEALTHCARE PHARMACY CO LIMITED( 寶健大藥房有限公司 ),"SHOP A19-A21, G/F, KINGSWOOD RICHLY PLAZA , 1 TIN WU ROAD,TIN SHUI WAI,NT",TIN SHUI WAI,24465173,22.451691,114.0013312
HEALTHNET DISPENSARY O/B HEALTHNET MEDICINE COMPANY LIMITED( 康福中西藥房 ),"NO. 15 , G/F, UNITED BUILDING, 7 WU KWONG STREET,HUNG HOM,KLN",HUNG HOM,23339461,22.3057829,114.1860958
HEALTHY PHARMACY CO. LIMITED( 怡康藥房有限公司 ),"SHOP 1, G/F, TUNG CHEONG BUILDING, 59B ON NING ROAD,YUEN LONG,NT",YUEN LONG,24792092,22.4459245,114.0272721
HENG HING DISPENSARY O/B BEST TREE LIMITED( 恒興中西藥房 ),"SHOP 2-3, G/F & COCKLOFT, KWONG WAH PLAZA, 11 TAI TONG ROAD,YUEN LONG,NT",YUEN LONG,24433926,22.443949,114.029332
HING SHING DISPENSARY( 興盛中西藥房 ),"FLAT S119, CHUK YUEN PLAZA, CHUK YUEN SOUTH ESTATE, WONG TAI SIN,KLN",WONG TAI SIN,23260671,22.3439204,114.190636
HING SHING DISPENSARY COMPANY LIMITED( 興盛大藥房有限公司 ),"G/F, 141 HIP WO STREET,KWUN TONG,KLN",KWUN TONG,23443473,22.3164283,114.2262099
HING WAH DISPENSARY COMPANY LIMITED( 興華中西大藥房有限公司 ),"SHOP 123 & 128, 1/F, CHUNG ON SHOPPING CENTRE, CHUNG ON ESTATE, MA ON SHAN,NT",MA ON SHAN,28862123,22.4216334,114.2265162
HKSH EMC PHARMACY LIMITED( 養和東區醫療中心藥房有限公司 ),"6F, 5 A KUNG NGAM VILLAGE ROAD,SHAU KEI WAN,HK",SHAU KEI WAN,29171186,22.2825609,114.2326413
HKUMED COMMUNITY PHARMACY( 香港大學社區藥房 ),"ROOM 250-254, 2/F, ACADEMIC BUILDING, 3 SASSOON ROAD,POK FU LAM,HK",POK FU LAM,39102232,22.2692879,114.1298423
HOI HUI DISPENSARY LIMITED( 凱滙中西藥房有限公司 ),"SHOP 1C1, 1/F, YUE MAN SQUARE, 33 HIP WO STREET,KWUN TONG,KLN",KWUN TONG,29509035,22.3142413,114.2237782
HON HING DISPENSARY COMPANY LIMITED( 漢興西藥房有限公司 ),"SHOP NO. 103, LEVEL 1, METROPOLIS PLAZA, NO. 8 LUNG WAN STREET,SHEUNG SHUI,NT",SHEUNG SHUI,24818128,22.5020588,114.1297509
HON HING PHARMACY COMPANY LIMITED( 漢興中西大藥房有限公司 ),"SHOP 005-008, G/F, ZONE A, TAI PO MEGA MALL, 9 ON PONG ROAD,TAI PO,NT",TAI PO,26667156,22.4522622,114.1692078
HON SHING BIRDS NEST DISPENSARY O/B HON SHING MEDICINE CO LIMITED( 漢城燕窩中西藥房 ),"SHOP NOS. 11 & 12, G/F, EIGHTLAND GARDENS, 2 ON CHEE ROAD,TAI PO,NT",TAI PO,26669418,22.4524958,114.1667316
HON SHING PHARMACY COMPANY LIMITED( 漢城西藥房有限公司 ),"SHOP NO. 102, LEVEL 1, METROPOLIS PLAZA, NO. 8 LUNG WAN STREET,SHEUNG SHUI,NT",SHEUNG SHUI,"26339061, 26339062",22.5020588,114.1297509
HONEST WIDE DISPENSARY( 浩華大藥房 ),"SHOP 6 & 18, G/F, KING LAND APARTMENTS , 737-741C NATHAN ROAD,MONG KOK,KLN",MONG KOK,23097790,22.3217419,114.1685984
HONESTY . ROYAL DISPENSARY O/B A WORLD TRADING LIMITED( 誠‧御藥房 ),"SHOP NO. 103, 5/F, TSUI LAM SQUARE, TSUI LAM ESTATE, NO. 11 TSUI LAM ROAD,TSEUNG KWAN O,NT",TSEUNG KWAN O,23602229,22.3226169,114.2494009
HONG KIN DISPENSARY LIMITED( 康健西藥房有限公司 ),"GROUND FLOOR, 244 CHEUNG SHA WAN ROAD,SHAM SHUI PO,KLN",SHAM SHUI PO,27084338,22.331575,114.161609
HONG KONG CYCLOTRON LABORATORIES LIMITED( 未有登記中文名稱 ),"FLAT G13, G/F, BIOTECH CENTRE 2, 11 SCIENCE PARK WEST AVENUE, PHASE 2, HK SCIENCE PARK,TAI PO,NT",TAI PO,23320989,22.4257666,114.2101647
HONG KONG SANATORIUM & HOSPITAL LIMITED( 香港養和醫院有限公司 ),"PORTIONS OF 5/F, CENTRAL BLOCK, 4/F, LI SHU PUI BLOCK PHASE 2 & ANNEX, 2 & 4  VILLAGE ROAD,HAPPY VALLEY,HK",HAPPY VALLEY,"25720211, 28358822,",22.268937,114.183128
HONG KONG SANATORIUM & HOSPITAL LIMITED( 香港養和醫院有限公司 ),"PORTIONS OF B1/F, G/F, 2/F AND 5/F, LI SHU PUI BLOCK, HONG KONG SANATORIUM & HOSPITAL, 2 & 4 VILLAGE ROAD,HAPPY VALLEY,HK",HAPPY VALLEY,28358822,22.269235,114.1830406
HONG LING PHARMACY O/B MAN CHI TONG LIMITED( 康寧中西藥房 ),"G/F, 104A, 106, 106A PRINCE EDWARD ROAD WEST,MONG KOK,KLN",MONG KOK,27126323,22.324083,114.1675766
HONG NING PHARMACY O/B HONG NING MEDICINE LIMITED( 康寧大藥房 ),"G/F, 541 LOCKHART ROAD,CAUSEWAY BAY,HK",CAUSEWAY BAY,23800663,22.280799,114.184458
HONG SHING DISPENSARY O/B UNITED WORLD INVESTMENT LIMITED( 康盛西藥房 ),"SHOP A, G/F, NO. 17 WAI YI STREET,TAI PO,NT",TAI PO,26532346,22.4477404,114.1657608
HONG SHING PHARMACY O/B PO SANG PHARMACY LIMITED( 康成大藥房 ),"G/F, 112 SHAU KEI WAN ROAD,SHAU KEI WAN,HK",SHAU KEI WAN,28562882,22.2769626,114.229535
HONG TAT MEDICINE COMPANY LIMITED( 康達中西藥房有限公司 ),"SHOP G10, G/F, CHING TIN SHOPPING CENTRE, CHING TIN ESTATE, YAN PO ROAD,TUEN MUN,NT",TUEN MUN,98049520,22.4123694,113.9714609
HONG WAN GINSENG DRIED SEAFOOD DISPENSARY( 槺弘蔘茸海味中西藥房 ),"SHOP S78A, G/F, SUNSHINE CITY MARKET , MA ON SHAN,NT",MA ON SHAN,26309329,22.4241643,114.2318055
HONOR CITY HK PHARMACY LIMITED( 名城香港藥房有限公司 ),"G/F, 71 FAU TSOI STREET,YUEN LONG,NT",YUEN LONG,23692811,22.4436945,114.029127
HONOR CITY HK PHARMACY O/B FAMOUS LUCKY STAR LIMITED( 名城香港藥房 ),"SHOP 4 ON G/F, YUEN LONG TRADE CENTRE, 99-109 CASTLE PEAK ROAD,YUEN LONG,NT",YUEN LONG,2369 2338,22.4447356,114.028602
HONOUR DISPENSARY O/B FAME SPREAD CORPORATION LIMITED( 誠信大藥房 ),"SHOP B, GROUND FLOOR AND BASEMENT, NOS. 71 & 73 MA TAU WAI ROAD,TO KWA WAN,KLN",TO KWA WAN,23304628,22.3124587,114.187861
HUMANITY PHARMACY LTD( 未有登記中文名稱 ),"G/F, 57 IVY STREET,TAI KOK TSUI,KLN",TAI KOK TSUI,23969334,22.3212703,114.1616046
HUNG HING DISPENSARY LIMITED( 鴻興西葯房有限公司 ),"G/F, 169C SHANGHAI STREET,YAU MA TEI,KLN",YAU MA TEI,27809933,22.3073395,114.1696202
HUNG HOM PHARMACY O/B LONG OASIS INTERNATIONAL LIMITED( 紅磡藥房 ),"FLAT 1A5, G/F , WHAMPOA ESTATE, NO. 99, 99A, 99B, 99D-F, 99H, 99J, 101-109 DOCK STREET,HUNG HOM,KLN",HUNG HOM,36891942,22.3063245,114.187001
HUNG WAN DISPENSARY LIMITED( 鴻運大藥房有限公司 ),"SHOP E, G/F, WEI SHUN MANSION, 50-58 TSEUK LUK STREET,SAN PO KONG,KLN",SAN PO KONG,23208861,22.3359928,114.1963717
HUNG WAN DISPENSARY O/B BEST TOPWELL LIMITED( 鴻運中西大藥房 ),"SHOP C, GROUND FLOOR, PAT CHUN MANSION, 717 NATHAN ROAD,MONG KOK,KLN",MONG KOK,23974468,22.3206262,114.1689002
HUNG WAN MEDICINE DISPENSARY LIMITED( 鴻運中西大藥房有限公司 ),"SHOP D & E, G/F, TONG AN MANSION, 62-64 TSEUK LUK STREET,SAN PO KONG,KLN",SAN PO KONG,2320 9288 / 98426635,22.335717,114.1966139
HUNG WAN PHARMACY O/B HUNG WAN MEDICAL LIMITED( 洪運中西藥房 ),"SHOP 3, G/F, HUNG FUK SHOPPING CENTRE, HUNG FUK ESTATE, HUNG YUEN ROAD,YUEN LONG,NT",YUEN LONG,22951899,22.436982,113.9985517
J11 DISPENSARY O/B SELF RISE LIMITED( 長隴藥房 ),"UNIT A1-A3, G/F, ON WAH INDUSTRIAL BUILDING, 41-43 AU PUI WAN STREET,SHATIN,NT",SHATIN,27620222,22.3976893,114.1945139
JACKSON PHARMACY O/B WISDOM INVESTMENT LIMITED( 智生大藥房 ),"SHOP NO. 78A, G/F, TIN ON HOUSE, SHEK YAM ROAD,KWAI CHUNG,NT",KWAI CHUNG,24218663,22.3696855,114.1396561
JOHNSON DISPENSARY LIMITED( 莊生中西藥房有限公司 ),"SHOP 72, G/F, MELODY GARDEN, 2 WU CHUI ROAD,TUEN MUN,NT",TUEN MUN,24681766,22.373368,113.961526
JOHNSON PHARMACEUTICAL LIMITED( 莊臣藥房有限公司 ),"SHOP NO. S-101, LEVEL 1, ZONE S, H.A.N.D.S., YAU OI ESTATE, TUEN MUN,NT",TUEN MUN,39565657,22.3884811,113.9744989
JOHNSON PHARMACY O/B FAIR CHANNEL DEVELOPMENT LIMITED( 莊生中西藥房 ),"ROOM 9, G/F, COMMERCIAL CENTRE, FU HENG ESTATE, TAI PO,NT",TAI PO,26605087,22.4510196,114.1721535
JUBILANT MEDICINE SHOP O/B LUCKY NOBLE INDUSTRIES LIMITED( 欣榮大藥房 ),"GROUND FLOOR & MEZZANINE FLOOR, 345 HENNESSY ROAD,WAN CHAI,HK",WAN CHAI,23628006,22.2787702,114.1789765
K.K. DISPENSARY O/B SILVER GLOBE HOLDINGS LIMITED( 高登大藥房 ),"SHOP C1-C3, G/F, HONLAND BUILDING , 108-118 PRINCE EDWARD ROAD WEST,MONG KOK,KLN",MONG KOK,23812982,22.324156,114.1679625
KA MAN DISPENSARY O/B MODERN VENTURE LIMITED( 嘉文藥房 ),"G/F, NO. 111 WOO SUNG STREET,JORDAN,KLN",JORDAN,23745748,22.3058139,114.1701426
KA TAI DISPENSARY O/B ROSE SUPREME LIMITED( 嘉泰中西大藥房 ),"SHOP F, G/F, LEE ON BUILDING, 56-62 ARGYLE STREET, 100B & 102 FA YUEN STREET,MONG KOK,KLN",MONG KOK,23772116,22.3194283,114.1713661
KA WAH DISPENSARY LIMITED( 嘉華參茸中西大藥房有限公司 ),"SHOP 212, 2/F, SIU SAI WAN PLAZA, 10 SIU SAI WAN ROAD,SIU SAI WAN,HK",SIU SAI WAN,28891832,22.262778,114.2489902
KA WAH DISPENSARY O/B KA WAH GINSENG AND DEER HORN DISPENSARY COMPANY LIMITED( 嘉華藥房 ),"FLAT 146, 1/F, THE LANE, HANG HAU, TSEUNG KWAN O,NT",TSEUNG KWAN O,34095163,22.3172623,114.2672828
KAI TAK PHARMACY LIMITED( 啟德中西大藥房有限公司 ),"FLAT G02, G/F, RETAIL BLOCK, KAI LONG COURT, 18  MUK ON STREET,KOWLOON CITY,KLN",KOWLOON CITY,24733688,22.3304504,114.2007641
KAI YUEN DISPENSARY LIMITED( 啟源中西藥房有限公司 ),"SHOP 214A, KAI TIN SHOPPING CENTRE, KAI TIN ESTATE, LAM TIN,KLN",LAM TIN,23476281,22.3082273,114.2351489
KAM FUNG GINSENG DRIED SEAFOOD DISPENSARY LIMITED( 金峰蔘茸海味中西大藥房有限公司 ),"SHOP 7 & 8, G/F, LEI MUK SHUE SHOPPING CENTRE, KWAI CHUNG,NT",KWAI CHUNG,34469582,22.37836,114.13671
KAM LUN DISPENSARY COMPANY LIMITED( 金輪中西蔘茸大藥房有限公司 ),"G/F, 56 PERCIVAL STREET,CAUSEWAY BAY,HK",CAUSEWAY BAY,28811706,22.279613,114.182961
KAM ON DISPENSARY O/B KAM ON MEDICINE CO LIMITED( 金安參茸藥房 ),"FLAT 230, 232, 2/F, CHEUNG FAT PLAZA, CHEUNG FAT ESTATE, TSING YI,NT",TSING YI,24341440,22.3621833,114.1037357
KAM ON DISPENSARY O/B KAM ON MEDICINE CO LIMITED( 金安參茸藥房 ),"SHOP B, G/F AND COCKLOFT, WING LEE BUILDING, 54 YUK WAH STREET,TSZ WAN SHAN,KLN",TSZ WAN SHAN,21947030,22.3471605,114.2017663
KAM ON MEDICINE O/B HARVEST PHARMACEUTICAL LIMITED( 金安美藥 ),"FLAT B, G/F , TUNG LOK BUILDING, NO. 15 KWONG FUK LANE,TAI PO,NT",TAI PO,23298586,22.4477631,114.1669496
KAM PO DISPENSARY O/B PAN SMART LIMITED( 金寶大葯房 ),"G/F, 99 BELCHER'S STREET, WEST POINT,KENNEDY TOWN,HK",KENNEDY TOWN,"28196806,",22.282748,114.128546
KAM SENG DISPENSARY( 錦生大藥房 ),"G/F, FRONT BLOCK, 50AB PEI HO STREET,SHAM SHUI PO,KLN",SHAM SHUI PO,23863547,22.3287854,114.1604591
KAM SHING MUN DISPENSARY LIMITED( 金城門中西藥房有限公司 ),"G/F , YEE SHUEN MANSION, 52 TAI WAI ROAD,TAI WAI,NT",TAI WAI,26984498,22.3750937,114.1779735
KAM TAI PHARMACY O/B KAM TAI PHARMACY LIMITED( 金泰中西大藥房 ),"FLAT/RM 3-4, G/F, KAM TONG BUILDING, 12-14 MOK CHEONG STREET,TO KWA WAN,KLN",TO KWA WAN,27238889,22.3229609,114.1894749
KARNING DISPENSARY( 嘉寧中西藥房 ),"SHOP B4, C1 LUEN FAT MANSION, 36-42 JOHNSTON ROAD,WAN CHAI,HK",WAN CHAI,25271462,22.2766082,114.170761
KARSONS PHARMACY O/B KARSONS GROUP LIMITED( 嘉信西藥房 ),"SHOP G018, KOLOUR. TSUEN WAN 1, TSUEN WAN,NT",TSUEN WAN,35260188,22.3706309,114.1176453
KENNEDY TOWN DISPENSARY LIMITED( 西環中西大藥房有限公司 ),"G/F, TUNG HING MANSION, 45 BELCHER'S STREET,KENNEDY TOWN,HK",KENNEDY TOWN,28724004,22.2832138,114.1298378
KENWAY PHARMACY O/B KENWAY PHARMACEUTICAL LIMITED( 健威大藥房 ),"SHOP 7 , G/F, MAYLUN APARTMENTS, 442-456 KING'S ROAD,NORTH POINT,HK",NORTH POINT,25617775,22.2908743,114.2002336
KEUNG SANG DISPENSARY( 強生大藥房 ),"G/F, 33C PORTLAND STREET,YAU MA TEI,KLN",YAU MA TEI,27713545,22.3127061,114.1700319
KI LUN PHARMACY LIMITED( 麒麟大藥房有限公司 ),"G/F, 57 MEI KING STREET,TO KWA WAN,KLN",TO KWA WAN,23335752,22.317112,114.191026
KIM BUN DISPENSARY LTD( 金檳藥房有限公司 ),"SHOP F, G/F, KIMBERLEY MANSION, 15 AUSTIN AVENUE,TSIM SHA TSUI,KLN",TSIM SHA TSUI,23663458,22.3021295,114.175335
KIN LOK DISPENSARY COMPANY LIMITED( 建樂大藥房有限公司 ),"SHOP NO. 5, G/F, HONOUR BUILDING, 78-80 TO KWA WAN ROAD,TO KWA WAN,KLN",TO KWA WAN,23622332,22.3170694,114.1900912
KIN MAN DISPENSARY O/B WALDSTEIN INTERNATIONAL LIMITED( 健民大藥房 ),"SHOP 20A-B, G/F, SHEUNG SHUI TOWN CENTRE, SHEUNG SHUI,NT",SHEUNG SHUI,26795119,22.5009463,114.1315105
KIN ON DISPENSARY LIMITED( 健安西藥房有限公司 ),"G/F, 117 CHUEN LUNG STREET,TSUEN WAN,NT",TSUEN WAN,24124338,22.369284,114.115398
KIN SANG DISPENSARY( 健生中西藥房 ),"G/F, 11 FUK LO TSUN ROAD,KOWLOON CITY,KLN",KOWLOON CITY,23823040,22.327837,114.187371
KIN YIP DISPENSARY O/B SUPREME JUBILEE LIMITED( 建業中西大藥房 ),"SHOP A1, G/F, TUNG TAK BUILDING, 48-50A KWEILIN STREET,SHAM SHUI PO,KLN",SHAM SHUI PO,23802811,22.3322235,114.1630946
KIND WEALTHY LIMITED( 仁康港灣藥房有限公司 ),"FLAT G23, G/F, METRO HARBOUR PLAZA, NO. 8 FUK LEE STREET,TAI KOK TSUI,KLN",TAI KOK TSUI,23373788,22.3245534,114.1609022
KING MAN DISPENSARY O/B GOLD BEST CAPITAL INVESTMENT LIMITED( 景文中西大藥房 ),"SHOP 2, G/F, HONOUR HOUSE, 375-381 NATHAN ROAD,JORDAN,KLN",JORDAN,23886348,22.308267,114.1711064
KIRIN DISPENSARY O/B TREASURE MAX LIMITED( 瑞麟大藥房 ),"SHOP NO. G10, G/F, SUN HING BUILDING, 603-609 NATHAN ROAD,MONG KOK,KLN",MONG KOK,35795518,22.3168722,114.1696201
KIT PHARM DISPENSARY LIMITED( 健豐中西藥房有限公司 ),"FLAT L16, LG/F, FITFORT, 560 KING'S ROAD,NORTH POINT,HK",NORTH POINT,25169606,22.2916747,114.2043276
KIU FUNG DISPENSARY O/B KIU FUNG DISPENSARY LIMITED( 僑豐西藥房 ),"SHOP 111, 1/F, WEST COMMERCIAL BLOCK, MARINA SQUARE, 12A SOUTH HORIZON DRIVE,AP LEI CHAU,HK",AP LEI CHAU,25800330,22.2436883,114.1467481
KO SHUN DISPENSARY O/B KO SHUN MEDICAL LIMITED( 高信中西大藥房 ),"SHOP A, KO SHUN HOUSE, NO. 329-331 NATHAN ROAD AND NO. 33-35 NING PO STREET,JORDAN,KLN",JORDAN,21562998,22.3066065,114.1712689
KONG SHING DISPENSARY O/B SHING HING HONG KONG LIMITED( 港城中西大藥房 ),"SHOP 3, G/F, WIN FONG HEIGHTS, 15 SHING FONG STREET,KWAI CHUNG,NT",KWAI CHUNG,26100478,22.359873,114.1278812
KOON FAI DISPENSARY O/B EXTREME BEST LIMITED( 冠輝西藥房 ),"SHOPS C & D, G/F, 186 TEMPLE STREET,YAU MA TEI,KLN",YAU MA TEI,27810202,22.3065901,114.1701574
KOON LEUNG PHARMACY O/B TOP PROFIT INTERNATIONAL (HK) LIMITED( 冠亮藥房 ),"G/F, 525A NATHAN ROAD,YAU MA TEI,KLN",YAU MA TEI,23889036,22.3131658,114.1702384
KOON MAN DISPENSARY O/B KOON SANG DISPENSARY LIMITED( 冠文西葯房 ),"SHOP F, G/F, TAI WAN BUILDING, 10-22 TAI KWONG LANE ,TAI PO,NT",TAI PO,26616998,22.4468867,114.1673908
KOON SANG DISPENSARY O/B KOON MAN MEDICAL LIMITED( 冠生中西大藥房 ),"SHOP 109-110, 1/F, SAU MAU PING SHOPPING CENTRE, SAU MAU PING,KLN",SAU MAU PING,23548281,22.3194881,114.2319161
KOON SANG DISPENSARY O/B KOON SANG DISPENSARY LIMITED( 冠生中西大藥房 ),"SHOP 9-11, G/F, ZONE A, TAI PO MEGAMALL, 9 ON PONG ROAD,TAI PO,NT",TAI PO,26658789,22.4522622,114.1692078
KOON SHING DISPENSARY O/B WINGATE MEDICAL LIMITED( 冠誠西葯房 ),"A57, GROUND FLOOR & COCKLOFT, HOP YICK PLAZA, 23-27  TAI TONG ROAD,YUEN LONG,NT",YUEN LONG,26616117,22.4431844,114.0291957
KOON WAH DISPENSARY O/B KOON WAH PHARMACY LIMITED( 冠華西葯房 ),"M & G/F, 72 PO HEUNG STREET, TAI PO MARKET,TAI PO,NT",TAI PO,26560530,22.4479356,114.1665213
KOON WAH DISPENSARY O/B SUPER HARBOUR LIMITED( 冠華西藥房 ),"G/F & COCKLOFT, HUNG FAT BUILDING, 98 KWONG FUK ROAD,TAI PO,NT",TAI PO,26566963,22.4482325,114.1676055
KPM PHARMACY O/B KPM HEALTH LIMITED( 未有登記中文名稱 ),"PHARMACY ROOM OF UNIT 01-100, 1/F, KOWLOON HOTEL, 19-21 NATHAN ROAD,TSIM SHA TSUI,KLN",TSIM SHA TSUI,38936888,22.2958471,114.1718769
KWAN HING DISPENSARY LIMITED( 鈞興大藥房有限公司 ),"SHOP 5 & 6, G/F, WANG KWONG BUILDING, 33 NGAU TAU KOK ROAD,KOWLOON BAY,KLN",KOWLOON BAY,23054818,22.3258491,114.2150611
KWOK SHING DISPENSARY O/B KWOK SHING DISPENSARY LIMITED( 國城大藥房 ),"SHOP 4, G/F, SENTACT BUILDING, NO. 349A KING'S ROAD,NORTH POINT,HK",NORTH POINT,27918388,22.29075,114.1971843
KWOK SHING DISPENSARY O/B KWOK SHING DISPENSARY LIMITED( 國城大藥房 ),"SHOP 3060, L3, SHATIN LUCKY PLAZA, SHATIN,NT",SHATIN,26965088,22.3832235,114.1907821
KWOK SHING DISPENSARY O/B KWOK SHING DISPENSARY LIMITED( 國城大藥房 ),"SHOP NOS.9&10, G/F, GRANDWAY GARDEN, 5&7 TSUEN NAM ROAD TAI WAI,NT",TAI WAI,2601 0666,22.373728,114.1779371
LE PHARMACY O/B GREEN HEALTH COMPANY LIMITED( 匡健藥房 ),"FLAT 1705, 17/F, GRAND CITY PLAZA, 1-17 SAI LAU KOK ROAD,TSUEN WAN,NT",TSUEN WAN,29405110,22.3747357,114.1143403
LEE HONG DISPENSARY SUPERSTORE COMPANY LIMITED( 利康中西藥房有限公司 ),"SHOP 321, 3/F, MARITIME SQUARE, 33 TSING KING ROAD,TSING YI,NT",TSING YI,23181238,22.3557491,114.1083016
LEE HONG DRUGSTORE LIMITED( 利康中西藥房(奧海)有限公司 ),"FLAT 137, 1/F, OLYMPIAN CITY 2, TAI KOK TSUI,KLN",TAI KOK TSUI,28772345,22.3167357,114.1615929
LEE ON DISPENSARY LIMITED( 利安藥房有限公司 ),"SHOP L203, LEE ON SHOPPING CENTRE, LEE ON ESTATE, 23 SHA ON STREET,MA ON SHAN,NT",MA ON SHAN,31884588,22.425347,114.2418792
LETIAN PHARMACY LIMITED( 樂天藥房有限公司 ),"SHOP C44AB, 1/F, KINGSWOOD RICHLY PLAZA, 1 TIN WU ROAD,TIN SHUI WAI,NT",TIN SHUI WAI,26829996,22.4522537,114.0004029
LEUNG KING DISPENSARY COMPANY LIMITED( 良景藥房有限公司 ),"STALL T-LK98-100, G/F, LEUNG KING MARKET, LEUNG KING PLAZA, LEUNG KING ESTATE,TUEN MUN,NT",TUEN MUN,27990388,22.40667,113.96389
"LEUNG KWOK YING DISPENSARY O/B LEUNG SHUN SHING TONG, LIMITED( 梁國英藥房 )","G/F, 184 CHEUNG SHA WAN ROAD,SHAM SHUI PO,KLN",SHAM SHUI PO,27250339,22.3303364,114.1630435
LI HO DISPENSARY O/B LIHO INVESTMENTS LIMITED( 利好西藥房 ),"FLAT 60, 1/F, FORTUNE PLAZA, 4 ON CHEE ROAD,TAI PO,NT",TAI PO,26660444,22.45262,114.168026
LOK FAI DISPENSARY O/B LOK FAI DISPENSARY LIMITED( 樂暉藥房 ),"FLAT 4, G/F, FU HANG MANSION, 26-40 YAN CHING STREET,TUEN MUN,NT",TUEN MUN,26187780,22.3959686,113.9757623
LOK FAI DISPENSARY O/B NEW LOK FAI DISPENSARY LIMITED( 樂暉藥房 ),"SHOP 5, GROUND FLOOR, MAN SHING BUILDING, 1-15 & 9-13 KAI FAT PATH,TUEN MUN,NT",TUEN MUN,26187210,22.3949746,113.9757173
"LOK SIN TONG COMMUNITY PHARMACY O/B THE LOK SIN TONG BENEVOLENT SOCIETY, KOWLOON( 樂善堂社區藥房 )","1/F, NO. 50 JUNCTION ROAD,KOWLOON CITY,KLN",KOWLOON CITY,23611308,22.3294048,114.1871178
"LOK SIN TONG MR. & MRS. LEE YIN YEE COMMUNITY PHARMACY O/B THE LOK SIN TONG BENEVOLENT SOCIETY, KOWLOON( 樂善堂李賢義伉儷社區藥房 )","FLAT A, 1211-1215, PIONEER CENTRE, NO. 750 NATHAN ROAD,MONG KOK,KLN",MONG KOK,23383718,22.3225511,114.1691147
LUEN FUNG DISPENSARY LIMITED( 聯豐大藥房有限公司 ),"SHOP NOS. G063-066, G/F, TUEN MUN TOWN PLAZA PHASE I, TUEN MUN,NT",TUEN MUN,24511001,22.3929989,113.9767944
LUEN ON PHARMACY COMPANY LIMITED( 聯安大藥房有限公司 ),"1/F & G/F, 305A NGAU TAU KOK ROAD,KWUN TONG,KLN",KWUN TONG,23892811,22.3150317,114.2217139
LUEN SHING DISPENSARY COSMETIC LIMITED( 聯誠大藥房化粧品有限公司 ),"SHOP 46, G/F, KINGS WING PLAZA 2, 1 ON KWAN STREET, SHEK MUN,SHATIN,NT",SHATIN,28661136,22.3887091,114.208881
LUEN SHING DISPENSARY O/B HONOR MAGIC LIMITED( 聯城中西大藥房 ),"G/F, 22 FU SHIN STREET,TAI PO,NT",TAI PO,26569272,22.4484769,114.1648754
LUEN YICK DISPENSARY CO( 聯益中西葯房 ),"FLAT R-107, G/F, BUTTERFLY PLAZA, BUTTERFLY ESTATE, TUEN MUN,NT",TUEN MUN,24634302,22.374824,113.963456
LUEN YUE PHARMACY LIMITED( 聯譽藥房有限公司 ),"SHOP 1, G/F, EDITION 178, 178 HING FONG ROAD,KWAI CHUNG,NT",KWAI CHUNG,36195462,22.3606323,114.1285145
LUNG FUNG DISPENSARY O/B LUNG FUNG DISPENSARY (MAIN STORE) LIMITED( 龍豐藥房 ),"SHOP 3, LEVEL 1, LUNG FUNG GARDEN, 33 LUNG SUM AVENUE,SHEUNG SHUI,NT",SHEUNG SHUI,26684625,22.502815,114.1294623
LUNG FUNG DISPENSARY O/B MAN FUNG DISPENSARY LIMITED( 龍豐藥房 ),"G/F, 22 LUEN SHING STREET, LUEN WO MARKET,FANLING,NT",FANLING,29475218,22.4991743,114.1425108
LUNG FUNG MALL O/B FOREVER RISING WORLDWIDE LIMITED( 龍豐 ),"SHOP NOS. G01, 02, 03, 05 & G08, G/F, CARNARVON PLAZA, NO. 20 CARNARVON ROAD,TSIM SHA TSUI,KLN",TSIM SHA TSUI,26689702,22.2992107,114.1732428
LUNG FUNG MALL O/B FULL HONEST ASIA LIMITED( 龍豐 ),"G/F & MEZZANINE FLOOR, YU TO SANG BUILDING, 37 QUEEN'S ROAD CENTRAL,CENTRAL,HK",CENTRAL,22658068,22.2823947,114.1561825
LUNG FUNG MALL O/B GAIN OCEAN INTERNATIONAL LIMITED( 龍豐 ),"SHOP 2 AND SHOP 3 ON G/F, TUNG YIK BUILDING, NO. 8 YU KING SQUARE,YUEN LONG,NT",YUEN LONG,23682872,22.4440641,114.0288701
LUNG FUNG MALL O/B LUNG FUNG DISPENSARY (3RD STORE) LIMITED( 龍豐 ),"G/F 107-109 SAN FUNG AVENUE, G/F & CL 111 SAN FUNG AVENUE, G/F & CL A-C G/F E3 113-119 SAN FUNG AVENUE, SHEUNG SHUI,NT",SHEUNG SHUI,26717185,22.5034443,114.1268888
LUNG FUNG MALL O/B TAI TAK PHARMACY LIMITED( 龍豐 ),"SHOP NO.6-8,15,16A&B,17B&C, LEVEL 3, SHATIN CENTRE, SHATIN,NT",SHATIN,27209389,22.3795789,114.1871289
LUNG FUNG MALL O/B TRUE HARVEST DISPENSARY COMPANY LIMITED( 龍豐 ),"G/F & COCKLOFT, NOS. 6F & 6G NELSON STREET & NOS. 40, 42, 44, 46, 48, 50 TUNG CHOI STREET,MONG KOK,KLN",MONG KOK,23391938,22.3184968,114.1709057
LUNG FUNG O/B BEST HARVEST ENTERPRISES LIMITED( 龍豐 ),"SHOP NO.13, 15-17, LEVEL 2, FANLING TOWN CENTER, NO.18 FANLING STATION ROAD,FANLING,NT",FANLING,2416 5039,22.4929406,114.1390656
LUNG FUNG O/B MAN WAH DISPENSARY LIMITED( 龍豐 ),"GROUND FLOOR INCLUDING COCKLOFT, 19 & 21 SAU FU STREET,YUEN LONG,NT",YUEN LONG,26730237,22.4450572,114.027199
LUNG SHING DISPENSARY O/B LUNG SHING CO. LIMITED( 龍城大葯房 ),"G/F, 1/F, 28A & G/F, 1/F, 2/F , 28 GRANVILLE ROAD,TSIM SHA TSUI,KLN",TSIM SHA TSUI,23679279,22.2998892,114.1740556
MAN HONG DISPENSARY( 民康西葯房 ),"SHOP NO. 42, G/F, LUNG FUNG GARDEN, SHEUNG SHUI,NT",SHEUNG SHUI,26682135,22.503066,114.129429
MAN HONG PHARMACY O/B PACIFIC FIRST (H.K.) LIMITED( 文康大藥房 ),"SHOP 16, LEVEL 1, JADE PLAZA , 3 ON CHEE ROAD,TAI PO,NT",TAI PO,26649808,22.4530721,114.1683894
MAN ON DISPENSARY COMPANY LIMITED( 文安藥房有限公司 ),"G/F & COCKLOFT, 90 SAN HONG STREET, SHEK WU HUI,SHEUNG SHUI,NT",SHEUNG SHUI,23388854,22.503582,114.1292033
MAN SANG DISPENSARY LIMITED( 民生藥房有限公司 ),"G/F, 16 TIN LOK LANE,WAN CHAI,HK",WAN CHAI,28035118,22.2780859,114.1795461
MAN SANG DISPENSARY O/B TOP ACT INC LIMITED( 民生中西大藥房 ),"SHOP 2B, GROUND FLOOR , YAU KWONG BUILDING , 418-430 HENNESSY ROAD,WAN CHAI,HK",WAN CHAI,28389869,22.2789988,114.1808434
MAN TAK PHARMACY O/B MAGNUM (INVESTMENT) CORPORATION LIMITED( 萬得藥房 ),"SHOP C, G/F, SHUN LOONG MANSION, 84-90 BONHAM STRAND EAST,SHEUNG WAN,HK",SHEUNG WAN,25430503,22.2859553,114.1504728
"MANNINGS BABY O/B THE DAIRY FARM COMPANY, LIMITED( 未有登記中文名稱 )","SHOP 106A, METROPOLIS PLAZA, 8 LUNG WAN STREET,SHEUNG SHUI,NT",SHEUNG SHUI,23253728,22.5020666,114.1292796
"MANNINGS BABY O/B THE DAIRY FARM COMPANY, LIMITED( 未有登記中文名稱 )","SHOP A213, LEVEL 2, NEW TOWN PLAZA PHASE III, SHATIN,NT",SHATIN,23425598,22.3791553,114.1876499
"MANNINGS BABY O/B THE DAIRY FARM COMPANY, LIMITED( 未有登記中文名稱 )","SHOP UNIT F68, 1/F, POPCORN, 9 TONG CHUN STREET,TSEUNG KWAN O,NT",TSEUNG KWAN O,27521167,22.307805,114.2595478
"MANNINGS BABY O/B THE DAIRY FARM COMPANY, LIMITED( 未有登記中文名稱 )","SHOP NO. 2008, LEVEL 2, YOHO MALL I, NO. 9 LONG YAT ROAD,YUEN LONG,NT",YUEN LONG,24709371,22.443614,114.03738
"MANNINGS O/B THE DAIRY FARM COMPANY, LIMITED( 萬寧 )","SHOPS 3-4, G/F, TUNG CHUNG CRESCENT, TUNG CHUNG,NT",TUNG CHUNG,31474376,22.2880911,113.9398923
"MANNINGS O/B THE DAIRY FARM COMPANY, LIMITED( 萬寧 )","SHOP NOS. 130 & 181-183 ON 1/F, YUEN LONG PLAZA, YUEN LONG,NT",YUEN LONG,23206205,22.4448455,114.0239342
"MANNINGS O/B THE DAIRY FARM COMPANY, LIMITED( 萬寧 )","SHOP NOS. 139-142, G/F, FANLING CENTRE, NO. 33 SAN WAN ROAD,FANLING,NT",FANLING,26600114,22.490021,114.14195
"MANNINGS O/B THE DAIRY FARM COMPANY, LIMITED( 萬寧 )","SHOP NOS. B119-B120, B1 FLOOR, AIRSIDE, NO.2 CONCORDE ROAD, KAI TAK,KOWLOON CITY,KLN",KOWLOON CITY,27746011,22.331322,114.198142
"MANNINGS O/B THE DAIRY FARM COMPANY, LIMITED( 萬寧 )","SHOP NOS. G016 & G017, G/F, KOLOUR. TSUEN WAN I, 68 CHUNG ON STREET,TSUEN WAN,NT",TSUEN WAN,29407827,22.3706309,114.1176453
"MANNINGS O/B THE DAIRY FARM COMPANY, LIMITED( 萬寧 )","PORTION OF GROUND FLOOR, HARROW MANSION, 170-172 ABERDEEN MAIN ROAD,ABERDEEN,HK",ABERDEEN,26289049,22.2493652,114.1561961
"MANNINGS O/B THE DAIRY FARM COMPANY, LIMITED( 萬寧 )","SHOP 1092, LEVEL 1, ELEMENTS, 1 AUSTIN ROAD WEST,JORDAN,KLN",JORDAN,21968125,22.3049087,114.1623979
"MANNINGS O/B THE DAIRY FARM COMPANY, LIMITED( 萬寧 )","SHOP 11 & 11A, GROUND FLOOR, CHINA HONG KONG CITY, 33 CANTON ROAD,TSIM SHA TSUI,KLN",TSIM SHA TSUI,2752 7938,22.3005315,114.1678015
"MANNINGS O/B THE DAIRY FARM COMPANY, LIMITED( 萬寧 )","G/F, CAMBRIDGE HOUSE, NOS. 26-28 CAMERON ROAD,TSIM SHA TSUI,KLN",TSIM SHA TSUI,29076556,22.2989553,114.1743044
"MANNINGS O/B THE DAIRY FARM COMPANY, LIMITED( 萬寧 )","UNIT NO. 122, FIRST FLOOR, MARINA SQUARE WEST COMMERCIAL BLOCK, SOUTH HORIZONS, AP LEI CHAU,HK",AP LEI CHAU,25375180,22.2437659,114.1468151
"MANNINGS O/B THE DAIRY FARM COMPANY, LIMITED( 萬寧 )","SHOP NO. 7, G/F, HING FAT HOUSE, NOS. 9-13 KAU YUK ROAD,YUEN LONG,NT",YUEN LONG,24168156,22.4427108,114.0275937
"MANNINGS O/B THE DAIRY FARM COMPANY, LIMITED( 萬寧 )","SHOP 108, SAU MAU PING SHOPPING CENTRE, SAU MAU PING ESTATE, SAU MAU PING,KLN",SAU MAU PING,2354 8572,22.3194881,114.2319161
"MANNINGS O/B THE DAIRY FARM COMPANY, LIMITED( 萬寧 )","SHOP A&B, G/F, LUNG HA BUILDING, NOS. 122-130 SAN FUNG AVENUE, SHEK WU HUI,SHEUNG SHUI,NT",SHEUNG SHUI,26575239,22.5035885,114.1264996
"MANNINGS O/B THE DAIRY FARM COMPANY, LIMITED( 萬寧 )","G/F, OXFORD COMMERCIAL BUILDING, 494-496 NATHAN ROAD,YAU MA TEI,KLN",YAU MA TEI,,22.3116808,114.1711757
"MANNINGS O/B THE DAIRY FARM COMPANY, LIMITED( 萬寧 )","SHOP 02, G/F, FORTRESS TOWER, 250 KING'S ROAD,NORTH POINT,HK",NORTH POINT,21171502,22.2887539,114.1942602
"MANNINGS O/B THE DAIRY FARM COMPANY, LIMITED( 萬寧 )","SHOP NO. 233 ON 2/F, DOMAIN, YAU TONG,KLN",YAU TONG,28703578,22.29594,114.23866
"MANNINGS O/B THE DAIRY FARM COMPANY, LIMITED( 萬寧 )","SHOP NO. 1, G/F, SINO CHEER PLAZA, 23 JORDAN ROAD,JORDAN,KLN",JORDAN,27826327,22.3054649,114.1708955
"MANNINGS O/B THE DAIRY FARM COMPANY, LIMITED( 萬寧 )","MINOR PORTION OF SHOPS G11&G13, G/F, DISCOVERY BAY NORTH PLAZA, LANTAU ISLAND,NT",LANTAU ISLAND,25801397,22.308116,114.01701
"MANNINGS O/B THE DAIRY FARM COMPANY, LIMITED( 萬寧 )","UNIT MTR-09, FESTIVAL WALK, 80 TAT CHEE AVENUE,KOWLOON TONG,KLN",KOWLOON TONG,22657325 / 31040230,22.337381,114.1744322
"MANNINGS O/B THE DAIRY FARM COMPANY, LIMITED( 萬寧 )","SHOPS NOS. 1116-1118 , LEVEL ONE, MCP CENTRAL, TSEUNG KWAN O,NT",TSEUNG KWAN O,26249599,22.3241364,114.2571874
"MANNINGS O/B THE DAIRY FARM COMPANY, LIMITED( 萬寧 )","SHOP NOS. A48 & A49 & A50, LEVEL 1, UPTOWN PLAZA, 9 NAM WAN ROAD,TAI PO,NT",TAI PO,26743028,22.4510196,114.1721535
"MANNINGS O/B THE DAIRY FARM COMPANY, LIMITED( 萬寧 )","UNIT 7E105, L7 DEPARTURES HALL, TERMINAL 1, HONG KONG INTERNATIONAL AIRPORT, LANTAU ISLAND,NT",LANTAU ISLAND,22610590,22.3131554,113.9275538
"MANNINGS O/B THE DAIRY FARM COMPANY, LIMITED( 萬寧 )","SHOP NO. 162, ON LEVEL 1, MOKO, 193 PRINCE EDWARD ROAD WEST,MONG KOK,KLN",MONG KOK,,22.3231937,114.1723194
"MANNINGS O/B THE DAIRY FARM COMPANY, LIMITED( 萬寧 )","SHOP UNIT 342, 3/F, THE LOHAS, TSEUNG KWAN O,NT",TSEUNG KWAN O,27591179,22.2964085,114.2705588
"MANNINGS O/B THE DAIRY FARM COMPANY, LIMITED( 萬寧 )","SHOP M28 & 29, MTR LEVEL, V CITY, 83 TUEN MUN HEUNG SZE WUI ROAD,TUEN MUN,NT",TUEN MUN,26600114,22.3953946,113.9739056
"MANNINGS O/B THE DAIRY FARM COMPANY, LIMITED( 萬寧 )","SHOP UNITS F16A & F17-F17A, TELFORD PLAZA, KOWLOON BAY,KLN",KOWLOON BAY,27986524,22.3233216,114.2135647
"MANNINGS O/B THE DAIRY FARM COMPANY, LIMITED( 萬寧 )","SHOP 110-125, TSUEN KAM CENTRE, TSUEN WAN,NT",TSUEN WAN,24923690,22.3741111,114.1149017
"MANNINGS O/B THE DAIRY FARM COMPANY, LIMITED( 萬寧 )","SHOP UNIT 216-217, LEVEL 2, MARITIME SQUARE , 33 TSING KING ROAD,TSING YI,NT",TSING YI,24953783,22.3557491,114.1083016
"MANNINGS O/B THE DAIRY FARM COMPANY, LIMITED( 萬寧 )","SHOP 377-378, PLAZA HOLLYWOOD, DIAMOND HILL,KLN",DIAMOND HILL,31010164,22.340353,114.201691
"MANNINGS O/B THE DAIRY FARM COMPANY, LIMITED( 萬寧 )","SHOP 3 & 4, G/F, METROPOLITAN RISE , 28 MA TAU KOK ROAD,MA TAU WAI,KLN",MA TAU WAI,2714 4547,22.3223471,114.1893588
"MANNINGS O/B THE DAIRY FARM COMPANY, LIMITED( 萬寧 )","UNIT 7T100, TERMINAL 1, HONG KONG INTERNATIONAL AIRPORT, 1 CHEONG HONG ROAD,LANTAU ISLAND,NT",LANTAU ISLAND,22734941,22.3131554,113.9275538
"MANNINGS O/B THE DAIRY FARM COMPANY, LIMITED( 萬寧 )","SHOP NO. 3183A, 3/F, LOK FU PLACE, 198 JUNCTION ROAD,WONG TAI SIN,KLN",WONG TAI SIN,2309 1114,22.3382401,114.1872689
"MANNINGS O/B THE DAIRY FARM COMPANY, LIMITED( 萬寧 )","SHOP NO. 02, G/F, REGENT CENTRE, 88 QUEEN'S ROAD CENTRAL,CENTRAL,HK",CENTRAL,28106281,22.2831406,114.1551291
"MANNINGS O/B THE DAIRY FARM COMPANY, LIMITED( 萬寧 )","SHOP NOS. 4, G/F, KWONG WAH CENTRE, 34-36 FAU TSOI STREET,YUEN LONG,NT",YUEN LONG,24435965,22.443977,114.030067
"MANNINGS O/B THE DAIRY FARM COMPANY, LIMITED( 萬寧 )","SHOP NO. 201, LEVEL 2, TAI WO PLAZA, TAI WO ESTATE, 12 TAI PO TAI WO ROAD,TAI PO,NT",TAI PO,26619026,22.4525121,114.1615855
"MANNINGS O/B THE DAIRY FARM COMPANY, LIMITED( 萬寧 )","SHOP NO. 238B, LEVEL 2, EAST POINT CITY, 8 CHUNG WA ROAD,TSEUNG KWAN O,NT",TSEUNG KWAN O,26284027 26284736 (Disp),22.3165218,114.264659
"MANNINGS O/B THE DAIRY FARM COMPANY, LIMITED( 萬寧 )","G/F, 25-27 SING WOO ROAD,HAPPY VALLEY,HK",HAPPY VALLEY,25756904,22.2695483,114.1853879
"MANNINGS O/B THE DAIRY FARM COMPANY, LIMITED( 萬寧 )","SHOP NO.L029, G/F, TIN YIU PLAZA, TIN SHUI WAI,NT",TIN SHUI WAI,2447 9395,22.4510611,114.0031009
"MANNINGS O/B THE DAIRY FARM COMPANY, LIMITED( 萬寧 )","SHOP NOS. B108-B110, BASEMENT 1, K11, NO. 18 HANOI ROAD,TSIM SHA TSUI,KLN",TSIM SHA TSUI,25278932,22.2979425,114.1735923
"MANNINGS O/B THE DAIRY FARM COMPANY, LIMITED( 萬寧 )","SHOP NOS 142-143, 1/F, OLYMPIAN CITY 2, OLYMPIAN CITY, TAI KOK TSUI,KLN",TAI KOK TSUI,22724972,22.3180874,114.1589222
"MANNINGS O/B THE DAIRY FARM COMPANY, LIMITED( 萬寧 )","SHOP A, G/F, FOURSEAS BUILDING, NOS. 208-212 NATHAN ROAD,TSIM SHA TSUI,KLN",TSIM SHA TSUI,27206675,22.304604,114.1717241
"MANNINGS O/B THE DAIRY FARM COMPANY, LIMITED( 萬寧 )","SHOP 99B, G/F, MEI FOO SUN CHUEN, 69-119 BROADWAY,MEI FOO,KLN",MEI FOO,27429664,22.3369203,114.1385852
"MANNINGS O/B THE DAIRY FARM COMPANY, LIMITED( 萬寧 )","SHOP NOS. L1-28 & L1-29, LEVEL 1, APM MILLENNIUM CITY 5, KWUN TONG,KLN",KWUN TONG,31489369,22.312401,114.225222
"MANNINGS O/B THE DAIRY FARM COMPANY, LIMITED( 萬寧 )","SHOP 17, G1A, G/F, 1-7 WU KWONG STREET,HUNG HOM,KLN",HUNG HOM,23341039,22.3063009,114.1863501
"MANNINGS O/B THE DAIRY FARM COMPANY, LIMITED( 萬寧 )","SHOP C, E-G & J, G/F, EVERWIN MANS, 18 JOHNSTON ROAD,WAN CHAI,HK",WAN CHAI,21119641,22.2769923,114.1700094
"MANNINGS O/B THE DAIRY FARM COMPANY, LIMITED( 萬寧 )","SHOPS L3-1, LEVEL 3, SCENEWAY PLAZA, NO. 8 SCENEWAY ROAD,LAM TIN,KLN",LAM TIN,27688524,22.3069951,114.2335701
"MANNINGS O/B THE DAIRY FARM COMPANY, LIMITED( 萬寧 )","SHOP 3304, LEVEL 3, GATEWAY ARCADE, HARBOUR CITY, TSIM SHA TSUI,KLN",TSIM SHA TSUI,26799313,22.2981979,114.168445
"MANNINGS O/B THE DAIRY FARM COMPANY, LIMITED( 萬寧 )","SHOP G30-32, FORTUNE CITY ONE, CITY ONE, SHATIN,NT",SHATIN,26460884,22.3861716,114.2036629
"MANNINGS O/B THE DAIRY FARM COMPANY, LIMITED( 萬寧 )","G/F, 7 TUNG MING STREET,KWUN TONG,KLN",KWUN TONG,"23434099, 23434003",22.3150211,114.2229123
"MANNINGS O/B THE DAIRY FARM COMPANY, LIMITED( 萬寧 )","SHOP NO. 307 & 307A, LEVEL 3, NEW TOWN PLAZA PHASE 1, SHATIN,NT",SHATIN,26986470,22.3817578,114.1886372
"MANNINGS O/B THE DAIRY FARM COMPANY, LIMITED( 萬寧 )","SHOP 1-11, LEVEL 4, NEW JADE SHOPPING ARCADE, CHAI WAN,HK",CHAI WAN,25951709,22.2639913,114.2370739
"MANNINGS PLUS O/B THE DAIRY FARM COMPANY, LIMITED( 未有登記中文名稱 )","SHOP G20-22, G/F, GRAND PLAZA, 625 & 639 NATHAN ROAD,MONG KOK,KLN",MONG KOK,27926422,22.3181205,114.169364
"MANNINGS PLUS O/B THE DAIRY FARM COMPANY, LIMITED( 未有登記中文名稱 )","SHOP B, G/F, 517 JAFFE ROAD,CAUSEWAY BAY,HK",CAUSEWAY BAY,25746092,22.2812956,114.1834605
"MANNINGS PLUS O/B THE DAIRY FARM COMPANY, LIMITED( 未有登記中文名稱 )","SHOP A, G/F, CAMBRIDGE HOUSE, TAIKOO PLACE, 979 KING'S ROAD,QUARRY BAY,HK",QUARRY BAY,22844810,22.286826,114.210933
"MANNINGS PLUS O/B THE DAIRY FARM COMPANY, LIMITED( 未有登記中文名稱 )","SHOP NOS. 2199B-2199F, 2/F, PHASE 1, TUEN MUN TOWN PLAZA, 1 TUEN SHUN STREET,TUEN MUN,NT",TUEN MUN,24041372,22.3929989,113.9767944
"MANNINGS PLUS O/B THE DAIRY FARM COMPANY, LIMITED( 未有登記中文名稱 )","SHOP NOS. 419-423, LEVEL 4, LANDMARK NORTH, 39 LUNG SUM AVENUE, SHEK WU HUI,SHEUNG SHUI,NT",SHEUNG SHUI,26728649,22.5025848,114.1279107
"MANNINGS PLUS O/B THE DAIRY FARM COMPANY, LIMITED( 未有登記中文名稱 )","SHOP 2004, PODIUM LEVEL 2, IFC MALL , 1 HARBOUR VIEW STREET,CENTRAL,HK",CENTRAL,25239135,22.2849042,114.1569078
"MANNINGS PLUS O/B THE DAIRY FARM COMPANY, LIMITED( 未有登記中文名稱 )","SHOP NOS. 417-419, LEVEL 4, METROPLAZA, KWAI FONG,NT",KWAI FONG,29736338,22.3574339,114.1261909
"MANNINGS PLUS O/B THE DAIRY FARM COMPANY, LIMITED( 未有登記中文名稱 )","NO. 420, CITYPLAZA 1, 18 TAI KOO SHING ROAD,TAI KOO SHING,HK",TAI KOO SHING,29070621,22.286721,114.217477
"MANNINGS PLUS O/B THE DAIRY FARM COMPANY, LIMITED( 未有登記中文名稱 )","SHOP NO. 2108, LEVEL 2, MOSTOWN, MA ON SHAN,NT",MA ON SHAN,26330406,22.4241633,114.2314688
"MATSUKIYO O/B MATSUMOTO KIYOSHI (HK) CO., LIMITED( 松本清 )","SHOP A139, L1, YOHO MALL II, YUEN LONG,NT",YUEN LONG,3971 0281,22.445713,114.0353169
"MATSUKIYO O/B MATSUMOTO KIYOSHI (HK) CO., LIMITED( 松本清 )","FLAT 1-3&5, G/F, KIMBERLEY 26, 26 KIMBERLEY ROAD,TSIM SHA TSUI,KLN",TSIM SHA TSUI,34254137,22.3004654,114.1734509
"MATSUKIYO O/B MATSUMOTO KIYOSHI (HK) CO., LIMITED( 松本清 )","SHOP G15-19 & 104, GRAND PLAZA, NO. 625 & 639 NATHAN ROAD,MONG KOK,KLN",MONG KOK,61490858,22.3181205,114.169364
"MATSUMOTO KIYOSHI APM O/B MATSUMOTO KIYOSHI (HK) CO., LIMITED( 松本清A P M )","SHOP UNIT UC-17 & 19, NO. 418 KWUN TONG ROAD,KWUN TONG,KLN",KWUN TONG,61490858,22.312401,114.225222
"MATSUMOTO KIYOSHI CAUSEWAY BAY FLAGSHIP O/B MATSUMOTO KIYOSHI (HK) CO., LIMITED( 松本清銅鑼灣旗艦店 )","SHOP G03-04 & SHOP F02-06, HANG LUNG CENTRE, 2-20 PATERSON STREET,CAUSEWAY BAY,HK",CAUSEWAY BAY,61490858,22.2802143,114.1859353
"MATSUMOTO KIYOSHI NEW TOWN PLAZA O/B MATSUMOTO KIYOSHI (HK) CO., LIMITED( 松本清 (新城市廣場) )","SHOP 250 LEVEL 2 & 359 LEVEL 3, NEW TOWN PLAZA, SHATIN CENTRE STREET, SHATIN,NT",SHATIN,98731996,22.3817578,114.1886372
"MATSUMOTO KIYOSHI TMTPLAZA O/B MATSUMOTO KIYOSHI (HK) CO., LIMITED( 松本清屯門市廣場 )","SHOP UG025-UG033, UG/F, TUEN MUN TOWN PLAZA, PHASE 1, 1 TUEN SHUN STREET,TUEN MUN,NT",TUEN MUN,31050695,22.3929989,113.9767944
MAX WEALTHY DISPENSARY O/B KIND WEALTHY LIMITED( 萬利來藥房 ),"G/F, 141 TAI KOK TSUI ROAD,TAI KOK TSUI,KLN",TAI KOK TSUI,23900920,22.322327,114.161484
MERLIN PHARMACY LIMITED( 美侖葯房有限公司 ),"SHOP 18, G/F, 29 SAU FU STREET,YUEN LONG,NT",YUEN LONG,24420988,22.4449895,114.0276748
METRO CITY DISPENSARY LIMITED( 新都城中西藥房有限公司 ),"37-38 UG, METRO CITY PLAZA , PHASE 2, TSEUNG KWAN O,NT",TSEUNG KWAN O,26232388,22.3222608,114.2591848
MICHAEL PHARMACARE COMPANY LIMITED( 米高藥業有限公司 ),"FLAT A1A, G/F, THE WHARF, 33 NORTH POINT ROAD,NORTH POINT,HK",NORTH POINT,35963613,22.2918182,114.1962855
MING FUNG DISPENSARY LIMITED( 名豐大藥房有限公司 ),"G/F, YEN DACK BUILDING, 107 CHUN YEUNG STREET,NORTH POINT,HK",NORTH POINT,35201348,22.291556,114.1983416
MING SUM DISPENSARY COMPANY O/B HYGIENE MEDICINE LIMITED( 銘森大藥房 ),"G/F & COCKLOFT, TUNG MING MANSION, 378 LAI CHI KOK ROAD,SHAM SHUI PO,KLN",SHAM SHUI PO,28062022,22.3294953,114.1596576
MOLECULAR IMAGING AND MEDICAL CYCLOTRON CENTRE( 份子掃描及醫療迴旋加速器中心 ),"RM 01-RM 32, LG3-01 FACULTY OF MEDICINE BUILDING, 21 SASSOON ROAD,POK FU LAM,HK",POK FU LAM,39177511,22.26735,114.128271
MORECARE PHARMACY LIMITED( 濟民西藥房有限公司 ),"SHOP 36B, LEVEL 3, HILTON PLAZA, 3-9 SHA TIN CENTRE STREET,SHATIN,NT",SHATIN,28869880,22.3792753,114.1867445
MYER PHARMACY O/B MEAN GOOD LIMITED( 金華中西藥房 ),"G/F , TAI ON BUILDING, 828 CANTON ROAD,YAU MA TEI,KLN",YAU MA TEI,27712877,22.3133207,114.1684851
NAM PEK GINSENG MEDICINE PHARMACY CO O/B PERFECT WINNER ENTERPRISES LIMITED( 南北中西大藥房 ),"ROOM D1, G/F, 12 HONG LOK ROAD,YUEN LONG,NT",YUEN LONG,24781449,22.4431112,114.0270929
NAM WAH PHARMACY O/B NAM WAH PHARMACY LIMITED( 南華藥房 ),"G/F, 42 ARGYLE STREET,MONG KOK,KLN",MONG KOK,23916125,22.319408,114.1707301
NATIONAL PHARMACY O/B CHI MAN DISPENSARY LIMITED( 國民大藥房 ),"SHOP A & B G/F & FLAT A & B 1/F, KWOK WING HOUSE, 63, 63A, 65 TUNG CHOI STREET G/F & COCKLOFT 67 TUNG CHOI STREET,MONG KOK,KLN",MONG KOK,24404818,22.3186184,114.1705442
NEW CHUN FAT DISPENSARY O/B FIRST STATE (HK) LIMITED( 新駿發藥房 ),"SHOP 3, G/F, FAR EAST MANSION, 1-5 TAI FUNG STREET,YUEN LONG,NT",YUEN LONG,2475 8899,22.445978,114.029854
NEW CITY DISPENSARY (HONG KONG) COMPANY LIMITED( 新城中西藥房(香港)有限公司 ),"SHOP UNIT 204, LEVEL 2, THE LOHAS, NO. 1 LOHAS PARK ROAD,TSEUNG KWAN O,NT",TSEUNG KWAN O,25758433,22.2964085,114.2705588
NEW CITY DISPENSARY GROUP LIMITED( 新城藥房集團有限公司 ),"SHOP NO(S). 2316 ON LEVEL 2 OF MOSTOWN, MA ON SHAN,NT",MA ON SHAN,26230038,22.4241633,114.2314688
NEW CITY DISPENSARY O/B EXCEL LOYAL (HONG KONG) LIMITED( 新城中西藥房 ),"ROOM 3B, G/F, KAI TAK GARDEN, PHASE II, 121 CHOI HUNG ROAD,WONG TAI SIN,KLN",WONG TAI SIN,29979181,22.3382155,114.1944955
NEW CITY DISPENSARY O/B HAPPY RIGHT INDUSTRIES LIMITED( 新城中西藥房 ),"ROOM 218-9, L2/F, METRO CITY PHASE I, TSEUNG KWAN O,NT",TSEUNG KWAN O,26237594,22.320638,114.257289
NEW FU KEUNG DISPENSARY COMPANY LIMITED( 新富強藥房有限公司 ),"SHOP 5, G/F, SOUTHERN BUILDING, 257-273 KING'S ROAD,NORTH POINT,HK",NORTH POINT,28878798,22.2900273,114.1948009
NEW SIU WO PHARMACY( 新兆和西藥房 ),"SHOP NO. 2-A, G/F, TAK WAH STREET,TSUEN WAN,NT",TSUEN WAN,24920987,22.3691927,114.1189147
NEW STAR PHARMACY LIMITED( 新星中西大藥房有限公司 ),"G/F, 15 MORRISON HILL ROAD,WAN CHAI,HK",WAN CHAI,31623568,22.2776596,114.1800616
NEW TOWN PHARMACY LIMITED( 屯門葯房有限公司 ),"27A, G/F, HONELEY COURT, 94-110 HEUNG SZE WUI ROAD,TUEN MUN,NT",TUEN MUN,24522599,22.3976169,113.9751809
NEW WANG HING DISPENSARY O/B CHUN TUNG MEDICAL LIMITED( 新宏興中西藥房 ),"SHOP D, G/F, KAM LAI BUILDING, 3 KAI MAN PATH,TUEN MUN,NT",TUEN MUN,"24301261, 24301262",22.395951,113.9749511
NOK SEON PHARMACY LIMITED( 諾信藥房有限公司 ),"G/F, 33 CHUEN LUNG STREET ,TSUEN WAN,NT",TSUEN WAN,37955687,22.3711944,114.1166531
NORTH POINT DISPENSARY LIMITED( 北角藥房有限公司 ),"SHOP NO. 1, G/F, 11-13 NORTH POINT ROAD,NORTH POINT,HK",NORTH POINT,25780166,22.290998,114.1964413
OCEAN DISPENSARY LIMITED( 海洋中西大藥房有限公司 ),"SHOP 1, G/F, CHUNG HING MANSION, NO.981A-981F KING'S ROAD, QUARRY BAY,HK",QUARRY BAY,25637585,22.2865621,114.2109912
OCEAN VIEW DISPENSARY LIMITED( 海昇西藥房有限公司 ),"SHOP S4, G/F, OCEANIC MANSION, 1018 KING'S ROAD,QUARRY BAY,HK",QUARRY BAY,25655900,22.284639,114.2119706
ODIS DISPENSARY LIMITED( 學勤藥房有限公司 ),"SHOP 3, G/F, MAN SHING BUILDING , NOS. 1/5 & 9/13  KAI FAT PATH ,TUEN MUN,NT",TUEN MUN,25080238,22.3949746,113.9757173
ON HONG DISPENSARY O/B FAMOUS ASIA CORPORATION LIMITED( 安康大藥房 ),"FLAT C, G/F, TONG SING MANSION, NOS. 72-82 TSEUK LUK STREET,SAN PO KONG,KLN",SAN PO KONG,28685928,22.3362609,114.1953795
ON TAT DISPENSARY( 安達西葯房 ),"SHOP NO. LG23, ON TAT SHOPPING CENTRE, KWUN TONG,KLN",KWUN TONG,23808999,22.3209129,114.2338483
"ON TAT PHARMACY CO., LIMITED( 安達藥房有限公司 )","FLAT 4-6, G/F, ON YAM SHOPPING CENTRE, ON YAM ESTATE, NO. 7 ON CHUK STREET,KWAI CHUNG,NT",KWAI CHUNG,23808866,22.3712131,114.141613
OSON DISPENSARY COMPANY LIMITED( 奧新西藥房有限公司 ),"SHOP G2, G/F, SUNLIGHT BUILDING, 273 SHUN NING ROAD,CHEUNG SHA WAN,KLN",CHEUNG SHA WAN,28023018,22.3372904,114.1584732
OSON PHARMACY (Y.T.) O/B OSON PHARMACY COMPANY LIMITED( 奧新藥房(逸東) ),"SHOP NO. 10, G/F, YAT TUNG SHOPPING CENTRE, YAT TUNG ESTATE, 8 YAT TUNG STREET,TUNG CHUNG,NT",TUNG CHUNG,23323923,22.281675,113.9348144
OSON PHARMACY CO O/B OSON MEDICINE COMPANY LIMITED( 奧新中西藥房 ),"SHOP NO.306 & 306A, 3/F, CHOI MING SHOPPING CENTRE, 1 CHOI MING STREET ,TSEUNG KWAN O,NT",TSEUNG KWAN O,23802898,22.3064277,114.2524929
OSON PHARMACY COMPANY LIMITED( 奧新藥房有限公司 ),"SHOP NO. 2114, 2/F, LOK FU PLACE, 198 JUNCTION ROAD,LOK FU,KLN",LOK FU,27862021,22.338526,114.1867696
PACIFIC PHARMACY CO( 海運藥房公司 ),"G/F, 36E SHANTUNG STREET,MONG KOK,KLN",MONG KOK,23320078,22.3172322,114.1687378
PAN PACIFIC DISPENSARY LIMITED( 泛亞大藥房有限公司 ),"G/F, 51 LION ROCK ROAD,KOWLOON CITY,KLN",KOWLOON CITY,23839101,22.3294648,114.1880999
PEACE DISPENSARY LTD( 未有登記中文名稱 ),"G/F AND MEZZANINE FLOOR, 352 SHANGHAI STREET,YAU MA TEI,KLN",YAU MA TEI,23840422,22.3130503,114.1695194
PEDDER HEALTH PHARMACY O/B PEDDER HEALTH PHARMA COMPANY LIMITED( 仁德醫健藥房 ),"PORTION OF SHOP 1011-16, 10/F, H ZENTRE, 15 MIDDLE ROAD,TSIM SHA TSUI,KLN",TSIM SHA TSUI,29058333,22.2953974,114.1733859
PEONY DISPENSARY O/B SHUNDUO COMPANY LIMITED( 牡丹西藥房 ),"SHOP A62, G/F, HOP YICK PLAZA, 16-20 HOP CHOI STREET,YUEN LONG,NT",YUEN LONG,23688088,22.4432402,114.0298815
PERFECT PHARMACY O/B GRACE SUMMIT LIMITED( 海健藥房 ),"SHOP A, G/F, TAK CHEONG COMMERCIAL BUILDING, 215 PORTLAND STREET,MONG KOK,KLN",MONG KOK,26269138,22.3174712,114.1689234
PHARM - UNION PHARMACY( 聯合葯房 ),"SHOP 5, G/F, HING FAT BUILDING, 9-13 KAU YUK ROAD,YUEN LONG,NT",YUEN LONG,24432278,22.4427108,114.0275937
PHARM+ HAVEN OF HOPE COMMUNITY PHARMACY O/B HAVEN OF HOPE CHRISTIAN SERVICE( 藥健同心靈實社區藥房 ),"SHOP NO. G32, GROUND FLOOR, MCP DISCOVERY, 8 MAU YIP ROAD,TSEUNG KWAN O,NT",TSEUNG KWAN O,26235512,22.3224373,114.2568234
PHARM+ HONG KONG SHENG KUNG HUI COMMUNITY PHARMACY O/B HONG KONG SHENG KUNG HUI WELFARE COUNCIL LIMITED( 藥健同心香港聖公會社區藥房 ),"SHOP 3, CHEUNG YING ALLEY, THIRD GROUND FLOOR OF TROPICANA GARDENS, 110 LUNG CHEUNG ROAD,WONG TAI SIN,KLN",WONG TAI SIN,21160382,22.3548115,114.1974398
"PHARM+ LOK SIN TONG COMMUNITY PHARMACY O/B THE LOK SIN TONG BENEVOLENT SOCIETY, KOWLOON( 藥健同心樂善堂社區藥房 )","SHOP 2, G/F, THE GOLDEN GATE, NO. 1 PLOVER COVE ROAD,TAI PO,NT",TAI PO,,22.4497285,114.1673522
PHARM+ POK OI HOSPITAL COMMUNITY PHARMACY O/B POK OI HOSPITAL( 藥健同心博愛醫院社區藥房 ),"FLAT 904-5 9/F AND FLAT 1103 11/F, KWONG WAH PLAZA, 11 TAI TONG ROAD,YUEN LONG,NT",YUEN LONG,35905766,22.443949,114.029332
PHARM+ ST. JAMES' SETTLEMENT COMMUNITY PHARMACY O/B ST. JAMES' SETTLEMENT( 藥健同心聖雅各福群會社區藥房 ),"9/F, 383 KING'S ROAD,NORTH POINT,HK",NORTH POINT,,22.290995,114.198385
PHARM+ YWCA COMMUNITY PHARMACY O/B HONG KONG YOUNG WOMEN'S CHRISTIAN ASSOCIATION( 藥健同心女青社區藥房 ),"ROOM 903, SPOT, 48 LUNG SUM AVENUE,SHEUNG SHUI,NT",SHEUNG SHUI,,22.5031117,114.1279295
PHILANTHROPIC COMMUNITY PHARMACY O/B ST. JAMES' SETTLEMENT( 惠澤社區藥房 ),"ROOM 8, 8/F, ST. JAMES' SETTLEMENT, 85 STONE NULLAH LANE,WAN CHAI,HK",WAN CHAI,28313279,22.273359,114.1736678
PHILANTHROPIC COMMUNITY PHARMACY O/B ST. JAMES' SETTLEMENT( 惠澤社區藥房 ),"ROOM 12B & 17, 9/F, SHATIN GALLERIA, 18-24 SHAN MEI STREET,FO TAN,NT",FO TAN,28354320,22.3972442,114.1934135
PHILANTHROPIC COMMUNITY PHARMACY O/B ST. JAMES' SETTLEMENT( 惠澤社區藥房 ),"SHOP NO. 7, G/F, HIGH ONE GRAND, NO. 188 FUK WING STREET,SHAM SHUI PO,KLN",SHAM SHUI PO,23899034,22.333742,114.160648
PHILANTHROPIC COMMUNITY PHARMACY O/B ST. JAMES' SETTLEMENT( 惠澤社區藥房 ),"SHOP C1, 12/F, TG PLACE, 10 SHING YIP STREET,KWUN TONG,KLN",KWUN TONG,21164958,22.3104389,114.2259254
PO LING DISPENSARY O/B LINK FORTUNE HOLDINGS LIMITED( 保寧藥房 ),"G/F, 56 SAN HONG STREET,SHEUNG SHUI,NT",SHEUNG SHUI,26723416,22.5042306,114.1284937
PO TAT DISPENSARY LIMITED( 寶達藥房有限公司 ),"SHOP 16, G/F, PO TAT SHOPPING CENTRE, 2 PO LAM ROAD,SAU MAU PING,KLN",SAU MAU PING,23461555,22.3176434,114.2363253
POPULAR DISPENSARY( 萬藥坊中西大藥房 ),"SHOP NO. 5, G/F, LEI YUE MUN PLAZA , YAU TONG,KLN",YAU TONG,35860491,22.2964001,114.2394189
PROSPERITY DISPENSARY LIMITED( 昌盛中西大藥房有限公司 ),"A3, G/F , PAK CHEUNG BUILDING, NO. 59A-63A SHAN TUNG STREET,MONG KOK,KLN",MONG KOK,21530818,22.3179118,114.1711545
PROSPEROUS DISPENSARY O/B INCOME PROFIT (HK) LIMITED( 泓盛大藥房 ),"SHOP A, G/F, 200 DES VOEUX ROAD WEST,SHEUNG WAN,HK",SHEUNG WAN,25590172,22.2876989,114.1431694
QUALITY DISPENSARY LIMITED( 優品中西大藥房有限公司 ),"GROUND FLOOR AND COCKLOFT, NO. 152 SAI YEUNG CHOI STREET SOUTH,MONG KOK,KLN",MONG KOK,23201898,22.3201976,114.169894
QUALITY HEALTHCARE PHARMACY O/B QUALITY HEALTHCARE MEDICAL CENTRE LIMITED( 卓健藥房 ),"PORTION OF SHOP NO 6, 2/F, THE QUAYSIDE, 77 HOI BUN ROAD,KWUN TONG,KLN",KWUN TONG,37048410,22.3165336,114.2137085
REGAL DISPENSARY( 義成藥房 ),"G/F, 29E WONG NAI CHUNG ROAD,HAPPY VALLEY,HK",HAPPY VALLEY,25735247,22.2696996,114.1845968
REN DA DISPENSARY O/B YAN TAI MEDICINE COMPANY LIMITED( 仁大藥房 ),"FLAT G, KAM LAI BUILDING, 5 KAI MAN PATH,TUEN MUN,NT",TUEN MUN,26187191,22.395951,113.9749511
RIT BIOTECH COMPANY LIMITED( 未有登記中文名稱 ),"UNIT A, 4/F, HK BAPTIST HOSPITAL SUPPORT SERVICES CENTRE, NO. 9 LOK YIP ROAD,FANLING,NT",FANLING,26822929,22.495347,114.143589
ROYAL CARE DISPENSARY O/B ROYAL CARE DISPENSARY LIMITED( 御康藥房 ),"FLAT 16, UPPER GROUND FLOOR, AVON PARK, 15 YAT MING ROAD,FANLING,NT",FANLING,26830816,22.4875058,114.1426676
ROYAL PHARM O/B LEADING WORLD CORPORATION LIMITED( 藥皇 ),"SHOP NO. 39, G/F, METRO HARBOUR PLAZA, TAI KOK TSUI,KLN",TAI KOK TSUI,26978119,22.3245534,114.1609022
RXPLUS PHARMACY O/B RXPLUS LIMITED( 康是美大藥房 ),"G/F, 138 NGA TSIN WAI ROAD,KOWLOON CITY,KLN",KOWLOON CITY,23832711,22.329101,114.187391
"S.C. EON PHARMACY CO., LIMITED( 時代中西葯房有限公司 )","SHOP NO. A, G/F, SITE 1, CHARMING GARDEN, NO. 16 HOI TING ROAD,MONG KOK,KLN",MONG KOK,21481408,22.314322,114.163104
SAFEMED DISPENSARY O/B THE HONG KONG PHARMACEUTICAL CARE FOUNDATION LIMITED( 配安心藥房 ),"ROOM 1, WORKSHOP 3 & 4, 7TH FLOOR CRE CENTRE, NO. 889  CHEUNG SHA WAN ROAD,CHEUNG SHA WAN,KLN",CHEUNG SHA WAN,29790380,22.3365909,114.1471298
SAMMY PHARMACEUTICAL LIMITED( 森美藥房有限公司 ),"SHOP NO. 59/C, G/F, RICHLAND GARDEN, NO. 138 WU CHUI ROAD,TUEN MUN,NT",TUEN MUN,24047876,22.3731447,113.9638802
SAN FUNG DISPENSARY LIMITED( 新豐大藥房有限公司 ),"SHOP NO. 114, LEVEL 1, TAI WO PLAZA, NO. 12 TAI PO TAI WO ROAD,TAI PO,NT",TAI PO,26372038,22.4513392,114.1617919
SANG SANG DISPENSARY O/B SANG SANG DISPENSARY LIMITED( 生生大藥房 ),"SHOP 5, G/F., HING FAT BUILDING, NO. 49 KAI MAN PATH,TUEN MUN,NT",TUEN MUN,94645002,22.3971656,113.975239
SE PHARMACY O/B SOCIAL ENTERPRISE LIMITED( 社企藥房 ),"AREA P, ROOM A, 1/F, COMFORT GARDEN, 60 KING'S ROAD,NORTH POINT,HK",NORTH POINT,35802678,22.2864427,114.1933993
SHEUNG TAK DISPENSARY LIMITED( 尚德藥房有限公司 ),"SHOP 10, G/F, TKO SPOT, 2 TONG MING STREET,TSEUNG KWAN O,NT",TSEUNG KWAN O,21783382,22.3110182,114.2588317
SHIN NOK DISPENSARY LIMITED( 善諾藥房有限公司 ),"SHOP 1 & 2, G/F, TSUEN LOK BUILDING, NO. 22-24 KWAN MUN HAU STREET,TSUEN WAN,NT",TSUEN WAN,24852856,22.3696468,114.1202929
SHING FUNG DISPENSARY (HONG KONG) COMPANY LIMITED( 成豐中西藥房(香港)有限公司 ),"SHOP NO. 111, G/F, HIN KENG SHOPPING CENTRE, HIN KENG ESTATE, SHATIN,NT",SHATIN,26933278,22.363705,114.171996
SHING TAI PHARMACY COMPANY O/B RICH LUCK (HONG KONG) LIMITED( 盛泰中西藥房 ),"FLAT B1-B3, G/F, LAI YUEN APARTMENTS, NO.59 RUSSELL STREET,CAUSEWAY BAY,HK",CAUSEWAY BAY,2802 2262,22.279031,114.1832623
SHIU TAK DISPENSARY O/B RAINBOW CHASE LIMITED( 兆德大藥房 ),"SHOP C ON G/F, HILLIER BUILDING, NO. 273 & 277 QUEEN'S ROAD CENTRAL,SHEUNG WAN,HK",SHEUNG WAN,26632355,22.2847576,114.1509489
SHUI FUNG DISPENSARY O/B GOOD FAMOUS TRADING LIMITED( 瑞豐大藥房 ),"G/F, 375 KING'S ROAD,NORTH POINT,HK",NORTH POINT,23180689,22.2909175,114.1981062
SHUI SHING YAU LEE DISPENSARY O/B CHEERFUL SMART LIMITED( 信誠有利藥房 ),"SHOP 16A, G/F, UNITED BUILDING, NOS. 1-7 WU KWONG STREET,HUNG HOM,KLN",HUNG HOM,27987068,22.3057829,114.1860958
SHUN CHEONG DISPENSARY O/B MEGA GRACE CORPORATION LIMITED( 信昌中西藥房 ),"G/F, 438 MA TAU WAI ROAD,TO KWA WAN,KLN",TO KWA WAN,23636939,22.3195985,114.187355
SHUN HING DISPENSARY O/B BRIGHT LUCKY LIMITED( 信興藥房 ),"G/F & COCKLOFT, 378 MA TAU WAI ROAD,TO KWA WAN,KLN",TO KWA WAN,"27135098, 94922262 (Mr. WONG)",22.3188938,114.1874123
SHUN LEE DISPENSARY LIMITED( 順利中西藥房有限公司 ),"SHOP G05, F3/F, LEE HONG HOUSE, SHUN LEE ESTATE, 15  LEE ON ROAD,KWUN TONG,KLN",KWUN TONG,23898589,22.3305935,114.2262793
SHUN MING DISPENSARY( 順明藥房 ),"G/F, NO. 4 YIK YAM STREET,HAPPY VALLEY,HK",HAPPY VALLEY,28384388,22.2695417,114.1850065
SHUN ON DISPENSARY O/B BLOOM HARVEST HOLDINGS LIMITED( 信安中西大藥房 ),"G/F, NEW SPRING GARDEN MANSION, NO. 47 SPRING GARDEN LANE,WAN CHAI,HK",WAN CHAI,22034328,22.2752945,114.1724301
SHUN SANG DISPENSARY O/B RICH PROVIDENCE LIMITED( 信生中西大藥房 ),"GROUND FLOOR , NO. 6H NELSON STREET,MONG KOK,KLN",MONG KOK,23323908,22.3184176,114.1702893
SHUN TAI DISPENSARY LIMITED( 信大藥房有限公司 ),"SHOP NO. 1, G/F, CHUEN LUNG BUILDING , 35-39 CHUEN LUNG STREET,TSUEN WAN,NT",TSUEN WAN,24852688,22.3711227,114.1166001
SHUN TAI PHARMACY O/B SHUN TAI PHARMACY LIMITED( 信大中西藥房 ),"SHOP L2-048, LEVEL 2, COMMERCIAL DEVELOPMENT METRO TOWN, 8 KING LING ROAD,TSEUNG KWAN O,NT",TSEUNG KWAN O,21410108,22.3049429,114.2518906
SHUN TAK DISPENSARY O/B TIEYE LIMITED( 信德中西藥房 ),"SHOP A & B ON G/F, SANG CHEONG BUILDING, 276 & 276A MA TAU WAI ROAD,TO KWA WAN,KLN",TO KWA WAN,21755122,22.3154554,114.187525
SKY DILIGENTS MEDICAL LIMITED( 天勤醫藥有限公司 ),"G/F, NO. 30 HAIPHONG ROAD,TSIM SHA TSUI,KLN",TSIM SHA TSUI,23176588,22.2979059,114.1700031
SUN CHEUNG DISPENSARY( 新昌大藥房 ),"SHOP L4 G/F, SHOP L M/F, HONG KONG MANSION, NO. 1 PATERSON STREET,CAUSEWAY BAY,HK",CAUSEWAY BAY,2577 0564,22.280164,114.185389
SUN FAI DISPENSARY O/B SUN FAI DISPENSARY LIMITED( 新輝大藥房 ),"SHOP NOS. 8 AND 9, LEVEL 1, REGENTVILLE , 8 WO MUN STREET, LUEN WO HUI,FANLING,NT",FANLING,31254720,22.5003493,114.1437134
SUN HEALTH PHARMACY LIMITED( 新興藥房有限公司 ),"FLAT A, G/F, MEZZANINE FLOOR, DUN TAK MANSION, 33 DUNDAS STREET,MONG KOK,KLN",MONG KOK,27708222,22.3153284,114.1693183
SUN LEE DISPENSARY LIMITED( 新利西葯房有限公司 ),"FLAT 19&21, G/F, HONELEY COURT, 94-110 TUEN MUN HEUNG SZE WUI ROAD,TUEN MUN,NT",TUEN MUN,24563915,22.3976169,113.9751809
SUN MING DISPENSARY LIMITED( 新明藥房有限公司 ),"G/F, 110 CHUNG ON STREET,TSUEN WAN,NT",TSUEN WAN,24927702,22.3691427,114.1164843
SUN MING DISPENSARY O/B STREAM POWER LIMITED( 新明大藥房 ),"SHOP 15, G/F, COMET MANSION, 45-67 FUNG CHEUNG ROAD,YUEN LONG,NT",YUEN LONG,24789805,22.4425159,114.0324707
SUN TAT ON DISPENSARY COMPANY O/B GOLDEN HEALTH MEDICAL SUPPLY LIMITED( 新達安藥房 ),"SHOP C & D, G/F, NO. 41 BUTE STREET,MONG KOK,KLN",MONG KOK,23936983,22.322176,114.1695796
SUNNING DISPENSARY LTD( 新寧藥房有限公司 ),"G/F, BLOCK A, 275 HENNESSY ROAD,WAN CHAI,HK",WAN CHAI,25197277,22.278286,114.1771643
SUPERB HEALTH PHARMACY O/B MAN WA PHARMACEUTICAL COMPANY LIMITED( 富盈大藥房 ),"SHOP B , G/F, 48 WING LOK STREET,SHEUNG WAN,HK",SHEUNG WAN,28691180,22.2863977,114.1519392
SURE PROSPER PHARMACY LIMITED( 正興大藥房有限公司 ),"G/F, 296 KI LUNG STREET,SHAM SHUI PO,KLN",SHAM SHUI PO,27188828,22.33005,114.1607026
T & C SHUN YEE PHARMACY LIMITED( 信義大藥房有限公司 ),"G/F, 24 WU PAK STREET AND PART OF M/F, 24-26  WU PAK STREET AND PART OF M/F, 10 CHENGTU ROAD,ABERDEEN,HK",ABERDEEN,25557773,22.2480083,114.1549201
TACK LONG DISPENSARY LIMITED( 達隆葯房有限公司 ),"G/F, 9A LOCK ROAD,TSIM SHA TSUI,KLN",TSIM SHA TSUI,23760768,22.297045,114.171652
TACK LONG DISPENSARY LIMITED( 達隆葯房有限公司 ),"G/F, 1 HANOI ROAD,TSIM SHA TSUI,KLN",TSIM SHA TSUI,23661188,22.298007,114.173865
TACK SHING DISPENSARY (HONG KONG) LIMITED( 達城大藥房(香港)有限公司 ),"FLAT 12, 2/F, FANLING TOWN CENTER, 18 FANLING STATION ROAD,FANLING,NT",FANLING,21916338,22.4929406,114.1390656
TACK SHING DISPENSARY LTD( 達城大藥房有限公司 ),"FLAT 3, G/F, TAK CHEUNG BUILDING, 1001 KWAI CHUNG ROAD,KWAI CHUNG,NT",KWAI CHUNG,24249352,22.3672988,114.1332523
TACK SHING DISPENSARY O/B MODERN INVESTMENT DEVELOPMENT HOLDINGS LIMITED( 達城大藥房 ),"SHOP 3062, LEVEL 3, SHATIN LUCKY PLAZA, 1-15 WANG POK STREET,SHATIN,NT",SHATIN,26886281,22.3829567,114.1911714
TAI LOY DISPENSARY LIMITED( 大來大藥房有限公司 ),"SHOP J, G/F, 93-115 HIP WO STREET,KWUN TONG,KLN",KWUN TONG,27931310,22.3156121,114.2257917
TAI ON DISPENSARY COMPANY LIMITED( 太安西葯房有限公司 ),"G/F, 35 TSING YUEN STREET,TAI PO,NT",TAI PO,26509228,22.44899,114.165015
TAI PANG DISPENSARY LIMITED( 大鵬中西藥房有限公司 ),"SHOP A, G/F, 10-16 LUEN SHING STREET,FANLING,NT",FANLING,2669 1223,22.4988782,114.1432163
TAI WAH DISPENSARY LTD( 大華西葯房有限公司 ),"G/F, WING LUNG BUILDING , 240A CASTLE PEAK ROAD,CHEUNG SHA WAN,KLN",CHEUNG SHA WAN,27294949,22.3371571,114.1581502
TAI WAH DISPENSARY O/B CENTER RAY LIMITED( 大華蔘茸中西大藥房 ),"SHOP B & C, G/F, 2-4 TUNG CHOI STREET,MONG KOK,KLN",MONG KOK,27839385,22.3168948,114.1712528
TAK MAN DISPENSARY LIMITED( 德民西藥房有限公司 ),"SHOP G1A, G/F, YUEN WAH BUILDING, WHAMPOA ESTATE, 25-27 TAK MAN STREET,HUNG HOM,KLN",HUNG HOM,96410208,22.3061664,114.1880427
TAK SHUN DISPENSARY LIMITED( 德信大藥房有限公司 ),"GROUND FLOOR, NO. 275 CHEUNG SHA WAN ROAD,SHAM SHUI PO,KLN",SHAM SHUI PO,27203508,22.3315895,114.1611082
TAK SING DISPENSARY O/B BLOOMING STATE COMPANY LIMITED( 德成大藥房 ),"G/F, 93 KWEILIN STREET,SHAM SHUI PO,KLN",SHAM SHUI PO,23043741,22.329741,114.160503
TAK WAH PHARMACY LIMITED( 德華大葯房有限公司 ),"FLAT B217, SHEK LEI (II) SHOPPING CENTRE, SHEK LEI ESTATE, KWAI CHUNG,NT",KWAI CHUNG,24232806,22.3656637,114.1391977
TAK YAN DISPENSARY COMPANY LIMITED( 德仁中西大藥房有限公司 ),"G/F, 27-29 SHING FONG STREET, LOWER KWAI CHUNG,KWAI CHUNG,NT",KWAI CHUNG,24200339,22.359362,114.1273263
TALENT PHARMACY O/B MORAL FAIR LIMITED( 健盈大藥房 ),"G/F & M/F, NO. 63 HENNESSY ROAD,WAN CHAI,HK",WAN CHAI,25286029,22.2777759,114.1709894
THE SUN PHARMACY AND HEALTH CENTRE LIMITED( 康晴藥房及保健中心有限公司 ),"SHOP 93B, G/F, SHOPPING ARCADE, NO. 79 BROADWAY, STAGE 4, MEI FOO SUN CHUEN,LAI CHI KOK,KLN",LAI CHI KOK,23712298,22.3361041,114.1409685
THE VICTORIA DISPENSARY O/B ELEGANCE CO LTD( 未有登記中文名稱 ),"SHOP 2, G/F, PEARL ORIENTAL HOUSE, 60 STANLEY STREET,CENTRAL,HK",CENTRAL,25231230,22.2829521,114.1549065
TIEN LU DISPENSARY( 天力葯房 ),"G/F, 700 KING'S ROAD,NORTH POINT,HK",NORTH POINT,25618628,22.2917507,114.206883
TIEN LU DISPENSARY (SHAU KEI WAN) COMPANY LIMITED( 天力藥房(筲箕灣)有限公司 ),"SHOP NOS. 3 & 5 (BEING A PORTION OF SHOP C), G/F, TUNG TAI BUILDING, 118-124 SHAU KEI WAN MAIN STREET EAST,SHAU KEI WAN,HK",SHAU KEI WAN,29678804,22.2782317,114.2301105
TIEN LU DISPENSARY LIMITED( 天力藥房有限公司 ),"SHOP H, G/F, KING FAI BUILDING, 98-112 SHAU KEI WAN MAIN STREET EAST,SHAU KEI WAN,HK",SHAU KEI WAN,28860263,22.2786788,114.2299015
TIN CHING DISPENSARY O/B GUAN WANG INTERNATIONAL MEDICINE COMPANY LIMITED( 天晴藥房 ),"SHOP A56, G/F AND COCKLOFT, HOP YICK PLAZA, 23-27 TAI TONG ROAD,YUEN LONG,NT",YUEN LONG,26199788,53.5933514,-2.3043062
TIN SHUI DISPENSARY( 天瑞中西藥房 ),"SHOP L037, G/F, TIN YIU PLAZA, TIN SHUI WAI,NT",TIN SHUI WAI,26510178,22.4510611,114.0031009
TIN SHUI DISPENSARY( 天瑞中西藥房 ),"SHOP 106, 1/F, TIN SHUI SHOPPING CENTRE , TIN SHUI WAI,NT",TIN SHUI WAI,24461268,22.4539177,114.0034765
TIN SING ABERDEEN PHARMACY( 天星藥房 ),"FLAT B, G/F, 194-196 ABERDEEN MAIN ROAD,ABERDEEN,HK",ABERDEEN,25556857,22.2496282,114.1550706
TIN WUI DISPENSARY( 天滙中西藥房 ),"SHOP 107, 1/F, TIN SHING SHOPPING CENTRE, TIN SHUI WAI,NT",TIN SHUI WAI,31535088,22.4513708,114.005951
TONG FU DISPENSARY ( 同福蔘茸中西藥房 ),"G/F, 15 LOK SHAN ROAD,TO KWA WAN,KLN",TO KWA WAN,23656072,22.316991,114.187483
TOP GOOD DISPENSARY LIMITED( 信安大藥房有限公司 ),"SHOP 3A, G/F, 42 PARKES STREET,JORDAN,KLN",JORDAN,27705808,22.3045349,114.1709126
TRUE HEART PHARMACY O/B TREASURE HINT LIMITED( 荃心日韓藥房 ),"G/F, NO. 47 CHUNG ON STREET,TSUEN WAN,NT",TSUEN WAN,24666593,22.3704121,114.1170406
TSUEN FUNG PHARMACY LIMITED( 荃豐藥房有限公司 ),"G/F, 50 SAN TSUEN STREET,TSUEN WAN,NT",TSUEN WAN,24883386,22.3694165,114.1150602
TSUEN WAI PHARMACY O/B TARGET SPOT LIMITED( 荃威大藥房 ),"G/F, 84 CHUNG ON STREET,TSUEN WAN,NT",TSUEN WAN,24133378,22.3698807,114.1169861
TUNG AH DISPENSARY O/B MUST BRIGHT LIMITED( 東亞大藥房 ),"SHOP NO. S-215, S-216, ZONE S, H.A.N.D.S YAU OI ESTATE, 4 OI YUNG STREET,TUEN MUN,NT",TUEN MUN,24515112,22.387169,113.9717801
TUNG AH PHARMACY COMPANY LIMITED( 東亞藥房有限公司 ),"SHOP NO. 1-4, G/F, CHI LOK FA YUEN, TUEN MUN,NT",TUEN MUN,24500818,22.3877311,113.9797834
TUNG SHING GINSENG DISPENSARY LIMITED( 東昇蔘茸葯房有限公司 ),"SHOP 2, G/F, WAN TAU TONG SHOPPING CENTRE, WAN TAU TONG ESTATE, TAI PO,NT",TAI PO,26501560,22.44207,114.167149
TUNG SING PHARMACY O/B TUNG SING MEDICINE LIMITED( 東昇葯房 ),"FLAT G104, G/F, YIU ON SHOPPING CENTRE, YIU ON ESTATE, NO. 2 HANG HONG STREET,SHATIN,NT",SHATIN,26300780,22.4201826,114.2303073
TUNG WAH PHARMACY O/B DRAGON ASIA DEVELOPMENT LIMITED( 東華中西藥房 ),"SHOP 96, G/F, FLORA PLAZA, 88 PAK WO ROAD,FANLING,NT",FANLING,26758837,22.48565,114.1415435
TWGHS BOCHK COMMUNITY PHARMACY O/B TUNG WAH GROUP OF HOSPITALS( 東華三院中銀香港社區藥房 ),"PORTION OF ROOM 22, 11/F, CHINA UNITED CENTRE, 28 MARBLE ROAD,NORTH POINT,HK",NORTH POINT,37035685,22.291702,114.2005546
UNICORN PHARMACY( 友康寧藥房 ),"G/F, 169 KING'S ROAD,NORTH POINT,HK",NORTH POINT,25121995,22.2887611,114.1936758
UNION HOSPITAL POLYCLINIC PHARMACEUTICAL SUPPLIES O/B UNION MEDICAL CENTRE LIMITED( 仁安醫院分科診所藥物供應中心 ),"SHOP 112, 1/F, H ZENTRE, 15 MIDDLE ROAD,TSIM SHA TSUI,KLN",TSIM SHA TSUI,27359927,22.2953974,114.1733859
UNION NUCLEAR ENTERPRISE LIMITED( 仁安核子企業有限公司 ),"G/F & 1/F, CYCLOTRON UNIT, UNION HOSPITAL, 18 FU KIN STREET,TAI WAI,NT",TAI WAI,26083941,22.3606398,114.1752751
UNISON COSMETIC O/B UNISON COSMETIC PHARMACY LIMITED( 友信日韓藥粧 ),"SHOP NO. G6, G/F, CHOI YUEN PLAZA, CHOI YUEN ESTATE, CHOI YUEN ROAD,SHEUNG SHUI,NT",SHEUNG SHUI,21572739,22.5016572,114.1247692
UNIVERSE DISPENSARY COMPANY( 環球西藥房 ),"SHOP A, G/F, 312 LAI CHI KOK ROAD,SHAM SHUI PO,KLN",SHAM SHUI PO,23615546,22.3283773,114.1611175
VANIC PHARMACY O/B LUCK HONEST HOLDINGS LIMITED( 永利西葯房 ),"SHOP 5, G/F, FAR EAST MANSION, 1-5 TAI FUNG STREET,YUEN LONG,NT",YUEN LONG,24789606,22.445978,114.029854
VAS PHARMACY LIMITED( 華氏大葯房有限公司 ),"G/F, 2 FOOK HONG STREET,YUEN LONG,NT",YUEN LONG,24880028,22.4445778,114.0288493
VETERINARY SPECIALTY PHARMACY OF ASIA LIMITED( 未有登記中文名稱 ),"FLAT 1, 2/F, LUCKY CENTRE, 165-171 WAN CHAI ROAD,WAN CHAI,HK",WAN CHAI,24080069,22.2768993,114.1770513
VICTORY DISPENSARY( 德勝西藥房 ),"G/F, 69B WATERLOO ROAD,HO MAN TIN,KLN",HO MAN TIN,27132516,22.3184603,114.1751703
WA MAN DISPENSARY LIMITED( 華民藥房有限公司 ),"G/F & OPEN YARD , NO. 117 ELECTRIC ROAD,CAUSEWAY BAY,HK",CAUSEWAY BAY,27751919,22.2855521,114.1915186
WAH HING DISPENSARY O/B HUA KUN COMPANY LIMITED( 華興中西藥房 ),"FLAT L333, 03/F, LEUNG KING PLAZA, LEUNG KING ESTATE, TUEN MUN,NT",TUEN MUN,24673800,22.40667,113.96389
WAH HING DISPENSARY O/B WAH HING DISPENSARY LIMITED( 華興大藥房 ),"UNIT 1, SHOP A&B G/F & COCKLOFT, TAI HING BUILDING, 64 TUEN MUN HEUNG SZE WUI ROAD,TUEN MUN,NT",TUEN MUN,22519688,22.396655,113.9749375
WAH SHING DISPENSARY O/B WAH SHING DISPENSARY LIMITED( 華成大藥房 ),"SHOP A, G/F, DIAMOND BUILDING, 6-18 TIN LOK LANE,WAN CHAI,HK",WAN CHAI,28071071,22.2781791,114.1795825
WAH YAN DISPENSARY LIMITED( 華仁大藥房有限公司 ),"SHOP A, G/F AND THE WHOLE OF THE BASEMENT, MAN HING COMMERCIAL BUILDING, NOS. 79-83 QUEEN'S ROAD CENTRAL,CENTRAL,HK",CENTRAL,28860983,22.2834373,114.1553951
WAI KING DISPENSARY LIMITED( 偉景西藥房有限公司 ),"SHOP E, NO. 113-117 SHEK YAM ROAD,KWAI CHUNG,NT",KWAI CHUNG,21872728,22.3702712,114.1386459
WAI WAH DISPENSARY LIMITED( 偉華西葯房有限公司 ),"FLAT A, 386-390 CASTLE PEAK ROAD,CHEUNG SHA WAN,KLN",CHEUNG SHA WAN,27435931,22.33974,114.1549665
WAI WAH DISPENSARY O/B UNITED PHARMACEUTICAL COMPANY LIMITED( 偉華西葯房 ),"G/F, NO. 296 CASTLE PEAK ROAD,SHAM SHUI PO,KLN",SHAM SHUI PO,27209299,22.338103,114.15698
WAN SHING PHARMACY LIMITED( 運城中西大藥房有限公司 ),"FLAT 2 & 11, G/F, 737-741C NATHAN ROAD,MONG KOK,KLN",MONG KOK,27495636,22.3217419,114.1685984
WANG KEE DISPENSARY LIMITED( 宏基中西藥房有限公司 ),"G/F, 127 DES VOEUX ROAD WEST,SAI YING PUN,HK",SAI YING PUN,2547 9698,22.2878941,114.144125
WANG TAI DISPENSARY O/B LEADER RELIANCE LIMITED( 宏泰藥房 ),"SHOP 4, G/F, KAM LUK BUILDING, 71 SHEK YAM ROAD,KWAI CHUNG,NT",KWAI CHUNG,24291988,22.3693621,114.1396052
WANSHUN DRUG & COSMETICS O/B WANSHUN COSMETICS TRADE DEVELOPMENT COMPANY LIMITED( 萬順安粧藥 ),"SHOP G12, G/F, KINGS WING PLAZA 2, NO. 1 ON KWAN STREET,SHATIN,NT",SHATIN,23838186,22.3887091,114.208881
WATSON'S THE CHEMIST O/B AS WATSON RETAIL (HK) LIMITED( 未有登記中文名稱 ),"SHOP 2100B-C & 2115-2122, 2/F, TUEN MUN TOWN PLAZA, PHASE 1, 1 TUEN SHING STREET,TUEN MUN,NT",TUEN MUN,24517646,22.3929989,113.9767944
WATSON'S THE CHEMIST O/B AS WATSON RETAIL (HK) LIMITED( 未有登記中文名稱 ),"SHOP NOS. 2116 & 2117, 2/F, LOK FU PLACE, LOK FU ESTATE, 198 JUNCTION ROAD,LOK FU,KLN",LOK FU,23362817,22.3383244,114.1872329
WATSON'S THE CHEMIST O/B AS WATSON RETAIL (HK) LIMITED( 未有登記中文名稱 ),"UNIT 1 ON GROUND FLOOR, 228 ELECTRIC ROAD,NORTH POINT,HK",NORTH POINT,28700593,22.2888411,114.1933543
WATSON'S THE CHEMIST O/B AS WATSON RETAIL (HK) LIMITED( 未有登記中文名稱 ),"WHOLE SHOP ON G/F OF AND IN THE DEVELOPMENT AT, NO.33 DES VOEUX ROAD CENTRAL,CENTRAL,HK",CENTRAL,25129055,22.2830704,114.1572298
WATSON'S THE CHEMIST O/B AS WATSON RETAIL (HK) LIMITED( 未有登記中文名稱 ),"SHOPS UG026-27, UG/F, MCP CENTRAL, TSEUNG KWAN O,NT",TSEUNG KWAN O,24580877,22.3241364,114.2571874
WATSON'S THE CHEMIST O/B AS WATSON RETAIL (HK) LIMITED( 未有登記中文名稱 ),"SHOP M-32, MTR LEVEL, V CITY, 83  TUEN MUN HEUNG SZE WUI ROAD,TUEN MUN,NT",TUEN MUN,24745977,22.3953946,113.9739056
WATSON'S THE CHEMIST O/B AS WATSON RETAIL (HK) LIMITED( 未有登記中文名稱 ),"SHOP 111, 1/F, ISLAND PLACE, NORTH POINT,HK",NORTH POINT,29604647,22.2908346,114.2020375
WATSON'S THE CHEMIST O/B AS WATSON RETAIL (HK) LIMITED( 未有登記中文名稱 ),"SHOP A, G/F , CROCODILE CENTRE, 79 HOI YUEN ROAD,KWUN TONG,KLN",KWUN TONG,27963055,22.3117442,114.2255827
WATSON'S THE CHEMIST O/B AS WATSON RETAIL (HK) LIMITED( 未有登記中文名稱 ),"SHOP 204, LEVEL 2, PACIFIC PLACE, PHASE II, 88 QUEENSWAY,ADMIRALTY,HK",ADMIRALTY,25231814,22.2771803,114.1644428
WATSON'S THE CHEMIST O/B AS WATSON RETAIL (HK) LIMITED( 未有登記中文名稱 ),"SHOP NO. 228, L2, PLAZA HOLLYWOOD, DIAMOND HILL,KLN",DIAMOND HILL,29555755,22.340353,114.201691
WATSON'S THE CHEMIST O/B AS WATSON RETAIL (HK) LIMITED( 未有登記中文名稱 ),"SHOP C, C1 & D, G/F , KIU HING MANSION, 14  KING'S ROAD,NORTH POINT,HK",NORTH POINT,25715912,22.28276,114.1927027
WATSON'S THE CHEMIST O/B AS WATSON RETAIL (HK) LIMITED( 未有登記中文名稱 ),"PORTION OF UNIT MTR-01 , LEVEL MTR, FESTIVAL WALK, 80 TAT CHEE AVENUE,KOWLOON TONG,KLN",KOWLOON TONG,21808481,22.337381,114.1744322
WATSON'S THE CHEMIST O/B AS WATSON RETAIL (HK) LIMITED( 未有登記中文名稱 ),"SHOP NO. 2136, LEVEL 2, MOSTOWN, MA ON SHAN,NT",MA ON SHAN,26303932,22.4241633,114.2314688
WATSON'S THE CHEMIST O/B AS WATSON RETAIL (HK) LIMITED( 未有登記中文名稱 ),"SHOP G24B, G25 & G26, FORTUNE CITY ONE, CITY ONE SHATIN, SHATIN,NT",SHATIN,21446292,22.3861716,114.2036629
WATSON'S THE CHEMIST O/B AS WATSON RETAIL (HK) LIMITED( 未有登記中文名稱 ),"SHOP 2 & 3, 8-10, G/F , HING FAT HOUSE, 9-13 KAU YUK ROAD,YUEN LONG,NT",YUEN LONG,24731205,22.4427108,114.0275937
WATSON'S THE CHEMIST O/B AS WATSON RETAIL (HK) LIMITED( 未有登記中文名稱 ),"SHOP UNIT F20A, LUK YEUNG GALLERIA, TSUEN WAN,NT",TSUEN WAN,24935895,22.3729004,114.1191563
WATSON'S THE CHEMIST O/B AS WATSON RETAIL (HK) LIMITED( 未有登記中文名稱 ),"SHOP NO. 32A & 32B ON G/F, JP PLAZA , 22 PATERSON STREET,CAUSEWAY BAY,HK",CAUSEWAY BAY,25608628,22.2808808,114.1858639
WATSON'S THE CHEMIST O/B AS WATSON RETAIL (HK) LIMITED( 未有登記中文名稱 ),"SHOP B169 & B187, LEVEL 1, YOHO MIX, YUEN LONG,NT",YUEN LONG,24115113,22.4448971,114.0347252
WATSON'S THE CHEMIST O/B AS WATSON RETAIL (HK) LIMITED( 未有登記中文名稱 ),"G/F & COCKLOFT, 43-45 FU HING STREET,SHEUNG SHUI,NT",SHEUNG SHUI,26397875,22.50405,114.127309
WATSON'S THE CHEMIST O/B AS WATSON RETAIL (HK) LIMITED( 未有登記中文名稱 ),"G/F, 1/F & 2/F, 142 CASTLE PEAK ROAD,YUEN LONG,NT",YUEN LONG,29447896,22.444265,114.0277319
WATSON'S THE CHEMIST O/B AS WATSON RETAIL (HK) LIMITED( 未有登記中文名稱 ),"N58 & 65-68, G/F , NO. 5-7 MOUNT STERLING MALL, STAGE 7,MEI FOO,KLN",MEI FOO,27862427,22.3376725,114.1390351
WATSON'S THE CHEMIST O/B AS WATSON RETAIL (HK) LIMITED( 未有登記中文名稱 ),"SHOP NO. R42 & R43, 3/F, CHOI YUEN PLAZA, SHEUNG SHUI,NT",SHEUNG SHUI,26390424,22.5027345,114.1248779
WATSON'S THE CHEMIST O/B AS WATSON RETAIL (HK) LIMITED( 未有登記中文名稱 ),"SHOP C1 & C2, G/F , AND WHOLE OF MEZZANINE FLOOR, WU SANG HOUSE, 655 NATHAN ROAD,MONG KOK,KLN",MONG KOK,23810999,22.3185003,114.1692486
WATSON'S THE CHEMIST O/B AS WATSON RETAIL (HK) LIMITED( 未有登記中文名稱 ),"SHOP UNIT G52, TELFORD PLAZA 1, KOWLOON BAY,KLN",KOWLOON BAY,29972491,22.3255374,114.2141193
WATSON'S THE CHEMIST O/B AS WATSON RETAIL (HK) LIMITED( 未有登記中文名稱 ),"SHOP UNIT 311-312, LEVEL 3, MARITIME SQUARE, 33 TSING KING ROAD,TSING YI,NT",TSING YI,21867292,22.3557491,114.1083016
WATSON'S THE CHEMIST O/B AS WATSON RETAIL (HK) LIMITED( 未有登記中文名稱 ),"SHOP 3-10 OF G/F, WHOLE 1/F & 2/F, FORTUNE CENTRE, 44-48 YUN PING ROAD,CAUSEWAY BAY,HK",CAUSEWAY BAY,22593069,22.2793705,114.1844343
WATSON'S THE CHEMIST O/B AS WATSON RETAIL (HK) LIMITED( 未有登記中文名稱 ),"FRONT PORTION OF SHOP C, G/F, HILTON TOWER, 96 GRANVILLE ROAD,TSIM SHA TSUI,KLN",TSIM SHA TSUI,25373091,22.2994836,114.1772245
WATSON'S THE CHEMIST O/B AS WATSON RETAIL (HK) LIMITED( 未有登記中文名稱 ),"FLAT 6C, G/F , HOI CHU COURT, AC4, ABERDEEN,HK",ABERDEEN,25540951,22.248282,114.1545641
WATSON'S THE CHEMIST O/B AS WATSON RETAIL (HK) LIMITED( 未有登記中文名稱 ),"SHOP NOS. 927-928, 9TH FLOOR, TIMES SQUARE, CAUSEWAY BAY,HK",CAUSEWAY BAY,25063382,22.278151,114.1821136
WATSON'S THE CHEMIST O/B AS WATSON RETAIL (HK) LIMITED( 未有登記中文名稱 ),"SHOP NOS. 1-073-075 & 1-085-086, LEVEL 1, TSEUNG KWAN O PLAZA, NO. 1 TONG TAK STREET,TSEUNG KWAN O,NT",TSEUNG KWAN O,23101305,22.3082692,114.2627149
WATSON'S THE CHEMIST O/B AS WATSON RETAIL (HK) LIMITED( 未有登記中文名稱 ),"SHOP NO. 135, 1/F, BLOCK C, DB PLAZA, DISCOVERY BAY CITY, LANTAU ISLAND,NT",LANTAU ISLAND,29874089,22.2958676,114.01658
WATSON'S THE CHEMIST O/B AS WATSON RETAIL (HK) LIMITED( 未有登記中文名稱 ),"SHOP NO. 226, 2/F, EAST POINT CITY, 8 CHUNG WA ROAD,TSEUNG KWAN O,NT",TSEUNG KWAN O,27925268,22.3165218,114.264659
WATSON'S THE CHEMIST O/B AS WATSON RETAIL (HK) LIMITED( 未有登記中文名稱 ),"SHOPS 3058, 3087 & 3088, LEVEL 3, LUCKY PLAZA, 1-15 WANG POK STREET,SHATIN,NT",SHATIN,26953424,22.3829567,114.1911714
WATSON'S THE CHEMIST O/B AS WATSON RETAIL (HK) LIMITED( 未有登記中文名稱 ),"SHOP A & B, G/F AND COCKLOFT, CHUNG PAK LAU, 28-30 TAI WAI ROAD,TAI WAI,NT",TAI WAI,26953424,22.375464,114.17779
WATSON'S THE CHEMIST O/B AS WATSON RETAIL (HK) LIMITED( 未有登記中文名稱 ),"SHOP 451-453, LEVEL 4, NEW TOWN PLAZA PHASE 1, SHATIN,NT",SHATIN,26066989,22.3817578,114.1886372
WATSON'S THE CHEMIST O/B AS WATSON RETAIL (HK) LIMITED( 未有登記中文名稱 ),"G/F & M/F, 205-207 HENNESSY ROAD,WAN CHAI,HK",WAN CHAI,28022719,22.2780198,114.1748743
WATSON'S THE CHEMIST O/B AS WATSON RETAIL (HK) LIMITED( 未有登記中文名稱 ),"SHOP NOS. 113B & 114, 1/F, FU TUNG PLAZA, FU TUNG ESTATE, 6 FU TUNG STREET,TUNG CHUNG,NT",TUNG CHUNG,25286978,22.2889179,113.9427116
WATSON'S THE CHEMIST O/B AS WATSON RETAIL (HK) LIMITED( 未有登記中文名稱 ),"SHOP NO. 124, 1/F, CITYPLAZA , 18 TAI KOO SHING ROAD,TAI KOO SHING,HK",TAI KOO SHING,29159065,22.286721,114.217477
WATSON'S THE CHEMIST O/B AS WATSON RETAIL (HK) LIMITED( 未有登記中文名稱 ),"SHOP NOS. G73A, G74 & G75, G/F, +WOO (PHASE 1), 12-18 TIN YAN ROAD,TIN SHUI WAI,NT",TIN SHUI WAI,27968003,22.4575521,114.0027222
WATSON'S THE CHEMIST O/B AS WATSON RETAIL (HK) LIMITED( 未有登記中文名稱 ),"SHOP A, GROUND FLOOR, MAJESTIC HOUSE, NO.80 NATHAN ROAD,TSIM SHA TSUI,KLN",TSIM SHA TSUI,27307807,22.2985929,114.1723759
WATSON'S THE CHEMIST O/B AS WATSON RETAIL (HK) LIMITED( 未有登記中文名稱 ),"SHOP NO. 113, LEVEL 1, ZONE B, TAI PO MEGA MALL, NO. 8 & 10 ON PONG ROAD,TAI PO,NT",TAI PO,5977 0639,22.4516733,114.1701314
WATSON'S THE CHEMIST O/B AS WATSON RETAIL (HK) LIMITED( 未有登記中文名稱 ),"SHOP 112, 112A, 113, REAR PORTION, 1/F, SOUTH HORIZON MARINA SQUARE WEST COMMERCIAL CENTRE, AP LEI CHAU,HK",AP LEI CHAU,28710782,22.243373,114.1476512
WATSON'S THE CHEMIST O/B AS WATSON RETAIL (HK) LIMITED( 未有登記中文名稱 ),"UNIT S046B OF THE GROUND FLOOR OF BUILDING 10W, PHASE TWO, HONG KONG SCIENCE PARK, PAK SHEK KOK, SHATIN,NT",SHATIN,26716287,22.4265285,114.2105892
WATSON'S THE CHEMIST O/B AS WATSON RETAIL (HK) LIMITED( 未有登記中文名稱 ),"SHOP 291-293, 2/F, SHUN TAK CENTRE, HK MACAU FERRY TERMINAL, 200 CONNAUGHT ROAD CENTRAL,SHEUNG WAN,HK",SHEUNG WAN,25499632,22.2880105,114.151085
WATSON'S THE CHEMIST O/B AS WATSON RETAIL (HK) LIMITED( 未有登記中文名稱 ),"SHOP 108, 1/F, OLYMPIAN CITY 2, 18 HOI TING ROAD,MONG KOK,KLN",MONG KOK,27404262,22.3167357,114.1615929
WATSON'S THE CHEMIST O/B AS WATSON RETAIL (HK) LIMITED( 未有登記中文名稱 ),"SHOPS 23, 24, 25, 26, 81, 82 AND 83 ON THE FIRST  FLOOR OF THE PODIUM OF ADMIRALTY CENTRE,ADMIRALTY,HK",ADMIRALTY,31535884,22.2792728,114.1650221
WATSON'S THE CHEMIST O/B AS WATSON RETAIL (HK) LIMITED( 未有登記中文名稱 ),"G/F, FOREMOST BUILDING, NOS. 19-21 JORDAN ROAD,JORDAN,KLN",JORDAN,27859066,22.3055006,114.1711094
WATSON'S THE CHEMIST O/B AS WATSON RETAIL (HK) LIMITED( 未有登記中文名稱 ),"SHOP NOS. 3 & 4, 1/F, LOCWOOD COURT, KINGSWOOD VILLAS, NO. 1 TIN WU ROAD,TIN SHUI WAI,NT",TIN SHUI WAI,24863709,22.452223,113.999545
WATSON'S THE CHEMIST O/B AS WATSON RETAIL (HK) LIMITED( 未有登記中文名稱 ),"SHOP NO. 101A, FIRST FLOOR, KAI TIN SHOPPING CENTRE, LAM TIN,KLN",LAM TIN,23400395,22.309093,114.2343596
WATSON'S THE CHEMIST O/B AS WATSON RETAIL (HK) LIMITED( 未有登記中文名稱 ),"SHOP NO. G3A ON THE GROUND FLOOR , SITE 2, WHAMPOA GARDEN, HUNG HOM,KLN",HUNG HOM,29945822,22.3048269,114.1886389
WATSON'S THE CHEMIST O/B AS WATSON RETAIL (HK) LIMITED( 未有登記中文名稱 ),"SHOP NO.218, LEVEL 2, TAI WO PLAZA, 12 TAI PO TAI WO ROAD,TAI PO,NT",TAI PO,26068376,22.4513392,114.1617919
WATSON'S THE CHEMIST O/B AS WATSON RETAIL (HK) LIMITED( 未有登記中文名稱 ),"SHOP NO. 28B, LEVEL 2, FANLING TOWN CENTRE, FANLING,NT",FANLING,26750763,22.492332,114.140094
WATSON'S THE CHEMIST O/B AS WATSON RETAIL (HK) LIMITED( 未有登記中文名稱 ),"SHOP 079-082 , LEVEL 1, UPTOWN PLAZA, TAI PO,NT",TAI PO,26381547,22.443554,114.169348
WATSON'S THE CHEMIST O/B AS WATSON RETAIL (HK) LIMITED( 未有登記中文名稱 ),"SHOP NOS. L2-018 & L2-019, L2, THE COMMERCIAL DEVELOPMENT OF METRO TOWN, TSEUNG KWAN O TOWN LOT NO. 73,TSEUNG KWAN O,NT",TSEUNG KWAN O,35498507,22.3089111,114.2635572
WATSON'S THE CHEMIST O/B AS WATSON RETAIL (HK) LIMITED( 未有登記中文名稱 ),"SHOP 222-225, LEVEL 2, MA ON SHAN PLAZA , NO. 608 SAI SHA ROAD,MA ON SHAN,NT",MA ON SHAN,26338730,22.425072,114.2311411
WATSON'S THE CHEMIST O/B AS WATSON RETAIL (HK) LIMITED( 未有登記中文名稱 ),"SHOP 341, LEVEL 3, METROPLAZA, KWAI FONG,NT",KWAI FONG,31523741,22.3574339,114.1261909
WATSONS HEALTH O/B AS WATSON RETAIL (HK) LIMITED( 未有登記中文名稱 ),"SHOP 3302, LEVEL 3, GATEWAY ARCADE, HARBOUR CITY, 7-23 CANTON ROAD,TSIM SHA TSUI,KLN",TSIM SHA TSUI,21170820,22.2981979,114.168445
WATSONS HEALTH O/B AS WATSON RETAIL (HK) LIMITED( 未有登記中文名稱 ),"SHOP G1-A, G/F , MELBOURNE PLAZA, 33 QUEEN'S ROAD CENTRAL,CENTRAL,HK",CENTRAL,25230888,22.2824039,114.1566772
WEALTHY DISPENSARY O/B WEALTHY PHARMACY LIMITED( 富城中西大藥房 ),"SHOP B, A113 - A118, G/F, EAST ASIA GARDEN, 36-60 TEXACO ROAD,TSUEN WAN,NT",TSUEN WAN,35904225,22.3686264,114.1220108
WEI WEI DISPENSARY LIMITED( 惠惠大藥房有限公司 ),"FLAT D, G/F, SHEUNG FOOK BUILDING, NOS. 92-98 FUK WING STREET, NOS. 143F-143H KWEILIN STREET,SHAM SHUI PO,KLN",SHAM SHUI PO,25111520,22.3322384,114.162723
WELL CARE PHARMACY O/B HEALTH CARE MEDICINES LIMITED( 仁心中西藥房 ),"SHOP NO. 1, G/F, NOS. 259, 261, 261A KI LUNG STREET,SHAM SHUI PO,KLN",SHAM SHUI PO,21231975,22.3288568,114.1616299
WELLCOME PHARMACY O/B WELLCOME PHARMACY LIMITED( 嘉城西藥房 ),"PORTION A OF SHOP NO. 3 ON G/F, WAH CHEUNG BUILDING, 117  HOI PA STREET & 28-30 CHUEN LUNG STREET,TSUEN WAN,NT",TSUEN WAN,26159013,22.3715661,114.1165537
WELTRAN PHARMACY O/B CHEERBOND ENTERPRISES LIMITED( 緯昌西藥房 ),"SHOP NO. 39, G/F, KWAI LAI HOUSE, SHEK YAM ROAD,KWAI CHUNG,NT",KWAI CHUNG,27185125,22.368621,114.1397786
WHAMPOA PHARMACY O/B STAR GROWTH (ASIA) LIMITED( 黃埔大藥房 ),"SHOP 3B, G/F, WHAMPOA ESTATE, 20 TAK MAN STREET,HUNG HOM,KLN",HUNG HOM,23639273,22.3061038,114.1875124
WILSON PHARMACY( 宏信藥房 ),"G/F, 70 SHAM TSENG VILLAGE, SHAM TSENG,NT",SHAM TSENG,24911968,22.36704,114.059095
WING FAT DISPENSARY O/B UNI-HEART HEALTH CO. LIMITED( 榮發藥房 ),"G/F, 1W SAIGON STREET,YAU MA TEI,KLN",YAU MA TEI,23880382,22.3074809,114.169244
WING FAT PHARMACY( 永發西藥房 ),"SHOP E, G/F, KAM PO BUILDING, 2-8 TUNG LOK STREET,YUEN LONG,NT",YUEN LONG,24787602,22.4452048,114.0282111
WING HING DISPENSARY LIMITED( 永興藥房有限公司 ),"FLAT 3, G/F, DOUBLE SET COMMERICAL CENTRE, 37A-37B JORDAN ROAD,YAU MA TEI,KLN",YAU MA TEI,2385 4698,22.3055892,114.1696318
WING HING DISPENSARY O/B GOLDRISE (H.K.) LIMITED( 榮興藥房 ),"G/F, 156-158 WELLINGTON STREET,CENTRAL,HK",CENTRAL,25230980,22.2841855,114.1535575
WING HING DISPENSARY O/B JUSCAN COMPANY LIMITED( 永興葯房 ),"FLAT 1&2 , G/F AND UNIT 1 & UNIT 2, 1/F, TIEN HUNG BUILDING, 35 MA TAU KOK ROAD,TO KWA WAN,KLN",TO KWA WAN,23880037,22.3217761,114.1898
WING HING DISPENSARY O/B WINFIELD (CHINA) LIMITED( 榮興蔘茸中西藥房 ),"SHOP 29 & 32, G/F, GOLDMINE BUILDING, 345 CHAI WAN ROAD,CHAI WAN,HK",CHAI WAN,25588665,22.2642272,114.2402635
WING HING MEDICINE LIMITED( 榮興中西藥房有限公司 ),"FLAT M6, BLOCK 4, SHEK PING HOUSE, LONG PING ESTATE, YUEN LONG,NT",YUEN LONG,24756593,22.4504979,114.0237436
WING HING PHARMACY O/B SUNNY WING HING PHARMACY LIMITED( 永興大藥房 ),"SHOPS S7B & S8, G/F, BAUHINIA GARDEN COMMERCIAL CENTRE, 11 TONG CHUN STREET,TSEUNG KWAN O,NT",TSEUNG KWAN O,23330198,22.3069599,114.2617518
WING HONG PHARMACY O/B SHING WAH CENTURY LIMITED( 榮康藥房 ),"SHOP NO. 24, G/F, CHEONG WAI MANSION, NO. 9A FUNG YAU STREET NORTH,YUEN LONG,NT",YUEN LONG,26348998,22.4441803,114.0335393
WING KIN PHARMACEUTICALS O/B WING KIN MEDICINE COMPANY LIMITED( 榮健藥房 ),"G/F, 105 CHUEN LUNG STREET,TSUEN WAN,NT",TSUEN WAN,26720551,22.369675,114.11564
WING LEE DISPENSARY COMPANY LIMITED( 榮利西藥房有限公司 ),"G/F, 66-68 NAM CHEONG STREET,SHAM SHUI PO,KLN",SHAM SHUI PO,23931638,22.3275781,114.1621598
WING LING DISPENSARY( 永寧西藥房 ),"G/F, NO. 18 YI CHUN STREET,SAI KUNG,NT",SAI KUNG,27923677,22.3815234,114.271252
WING LUNG DISPENSARY LIMITED( 永隆藥房有限公司 ),"SHOP A1, G/F, SIU HING BUILDING, 230-236 TEMPLE STREET,JORDAN,KLN",JORDAN,36116036,22.3055413,114.1698692
WING SHING DISPENSARY O/B LUNG SHING PLAZA LIMITED( 永盛中西大藥房 ),"GROUND FLOOR, NO. 62 SAI YEUNG CHOI STREET SOUTH,MONG KOK,KLN",MONG KOK,27788911,22.3186048,114.170253
WING WAH DISPENSARY( 榮華中西葯房 ),"FLAT G14, G/F, SITE 11, WHAMPOA GARDEN, HUNG HOM,KLN",HUNG HOM,23561103,22.30622,114.18449
WING WAH DISPENSARY O/B WING WAH DISPENSARY (GRANDIOSE) LIMITED( 榮華參茸中西藥房 ),"SHOP G64-66, G/F, POPCORN, 9 TONG CHUN STREET,TSEUNG KWAN O,NT",TSEUNG KWAN O,27521226,22.307805,114.2595478
WING WAH DISPENSARY O/B WING WAH DISPENSARY (HAU TAK) LIMITED( 榮華參茸中西藥房 ),"FLAT E035-036, G/F, EAST WING OF TKO GATEWAY, HAU TAK ESTATE, TSEUNG KWAN O,NT",TSEUNG KWAN O,26233111,22.3089111,114.2635572
WING WAH DISPENSARY O/B WING WAH DISPENSARY (NGAU TAU KOK) LIMITED( 榮華中西藥房 ),"SHOP NO. 3, UPPER NGAU TAU KOK ESTATE SHOPPING CENTRE, UPPER NGAU TAU KOK ESTATE,NGAU TAU KOK,KLN",NGAU TAU KOK,23102308,22.3201935,114.2159697
WING WAH DISPENSARY O/B WING WAH DISPENSARY (SHATIN) LIMITED( 榮華參茸中西藥房 ),"NOS. G35-36, G/F, FORTUNE CITY ONE, CITY ONE SHATIN, SHATIN,NT",SHATIN,26470883,22.3861716,114.2036629
WING WAH DISPENSARY O/B WING WAH DISPENSARY (SHEK YAM) LIMITED( 榮華參茸中西藥房 ),"G/F, KWAI FAT BUILDING, 98-100 SHEK YAM ROAD,KWAI CHUNG,NT",KWAI CHUNG,24252328,22.3700567,114.1394067
WING WAH DISPENSARY O/B WING WAH DISPENSARY (SHEK YAM) LIMITED( 榮華參茸中西藥房 ),"ROOM 106-107, 1/F, LEI YUE MUN PLAZA, YAU TONG,KLN",YAU TONG,23490938,22.2964793,114.2396858
WING WAH DISPENSARY O/B WING WAH DISPENSARY GROUP LIMITED( 榮華參茸中西藥房 ),"G/F, CHEUNG TAK MANSION, 26 TSO KUNG SQUARE,TSUEN WAN,NT",TSUEN WAN,27411244,22.3735955,114.1118389
WING WAH DISPENSARY O/B WING WAH GROUP DISPENSARY LIMITED( 榮華參茸中西藥房 ),"SHOP NO. 103, 1/F, TKO SPOT, SHEUNG TAK ESTATE, TSEUNG KWAN O,NT",TSEUNG KWAN O,21784666,22.3110182,114.2588317
WING WAH DISPENSARY O/B WING WAH MEDICINE (BANYAN) LIMITED( 榮華參茸中西藥房 ),"FLAT 43-44, 2/F, THE PACIFICA MALL, 9 SHAM SHING ROAD,LAI CHI KOK,KLN",LAI CHI KOK,36950217,22.3341562,114.1496735
WING WAH DISPENSARY O/B WING WAH MEDICINE (NT) LIMITED( 榮華參茸中西藥房 ),"SHOP NO. R118, G/F, BUTTERFLY PLAZA, BUTTERFLY ESTATE, TUEN MUN,NT",TUEN MUN,22780071,22.374824,113.963456
WING WAH DISPENSARY O/B WING WAH MEDICINE GROUP LIMITED( 榮華參茸中西葯房 ),"SHOP 213B, 2/F, TIN CHAK SHOPPING CENTRE, TIN SHUI WAI,NT",TIN SHUI WAI,24863778,22.4683451,113.9986694
WING WAH DRUG STORE O/B WING WAH GROUP DISPENSARY LIMITED( 榮華藥坊 ),"111-112, 1/F, YAU LAI SHOPPING CENTRE, YAU LAI ESTATE, YAU TONG,KLN",YAU TONG,27116610,22.2983917,114.2372842
"WING WAH FARMACIA O/B WING WAH FARMACIA (HONG KONG) CO., LIMITED( 榮華藥房 )","SHOP G102, G/F, CENTRAL HEIGHTS, NO. 9 TONG TAK STREET,TSEUNG KWAN O,NT",TSEUNG KWAN O,21559638,22.3079912,114.2558893
WING WAH PRESTIGE O/B PANGAEA INDUSTRY GROUP LIMITED( 未有登記中文名稱 ),"SHOP A226, YOHO MALL II, 8 LONG YAT ROAD,YUEN LONG,NT",YUEN LONG,34685171,22.445713,114.0353169
WING WAH PRESTIGE O/B PRESTIGE COMMUNITY PHARMACY LIMITED( 明尚 ),"SHOP NO. L2-75, LEVEL 2, V WALK, SHAM MONG ROAD,SHAM SHUI PO,KLN",SHAM SHUI PO,29820968,22.3270845,114.1543942
WIU CHUN DISPENSARY O/B HUNG CHEUNG INDUSTRIAL LIMITED( 回春藥房 ),"NO. 105 SAN FUNG AVENUE,SHEUNG SHUI,NT",SHEUNG SHUI,26392053,22.503508,114.126892
WO FUNG DISPENSARY LIMITED( 和豐藥房有限公司 ),"SHOP B, G/F, LOK FUNG BUILDING, 51 WO FUNG STREET,FANLING,NT",FANLING,28863771,22.4992252,114.1428555
WO SHUN TONG PHARMACY LIMITED( 和順堂中西藥房有限公司 ),"FLAT 505, CHOI TAK SHOPPING CENTRE, CHOI TAK ESTATE, NGAU TAU KOK,KLN",NGAU TAU KOK,23231123,22.32948,114.2127
WONDER DISPENSARY LTD( 榮泰大藥房有限公司 ),"G/F, 8-8A TSEUK LUK STREET,SAN PO KONG,KLN",SAN PO KONG,23214493,22.3365591,114.1951909
WONDERFUL (HONG KONG) DISPENSARY O/B PROFIT LIMITED( 萬事達(香港)藥房 ),"SHOP 17, G/F, YIP CHEONG BUILDING, 451 QUEEN'S ROAD WEST,SHEK TONG TSUI,HK",SHEK TONG TSUI,25468770,22.286432,114.1350946
WONDERFUL DISPENSARY( 萬事達西葯房 ),"SHOP N74B, MOUNT STERLING MALL, MEI FOO,KLN",MEI FOO,23702200,22.3381805,114.1385739
WONDERFUL DISPENSARY LIMITED( 威峯大藥房有限公司 ),"ROOM C1, G/F, WELLCOME MANSION, 233-239 CHEUNG SHA WAN ROAD, 38J & 38K KWEILIN STREET,SHAM SHUI PO,KLN",SHAM SHUI PO,23865586,22.3307571,114.161887
WONDERFUL PHARMACY O/B BILLION YIELD INTERNATIONAL INVESTMENT LIMITED( 千島藥房 ),"G/F, SHOP E AND COCKLOFT K & L, WAI LEE BUILDING, 997 KING'S ROAD,QUARRY BAY,HK",QUARRY BAY,29679279,22.285148,114.2120905
WOODS PHARMACY (KORNHILL PLAZA) O/B BEST CENTURY INC LIMITED( 活士西藥房(康怡廣場) ),"SHOP S21-S22, 2/F, KORNHILL PLAZA, 1 KORNHILL ROAD,QUARRY BAY,HK",QUARRY BAY,61706472,22.284621,114.2164327
WOODS PHARMACY O/B OCEAN LOYAL LIMITED( 活士西藥房 ),"SHOP 2240-41, LEVEL 2, MOSTOWN, MA ON SHAN,NT",MA ON SHAN,25808877,22.4241633,114.2314688
WORTHY DISPENSARY O/B HEAVEN STAR LIMITED( 森永大藥房 ),"FLAT 2E, G/F, FUNG SHING BUILDING, 168 CONNAUGHT ROAD WEST,SAI YING PUN,HK",SAI YING PUN,27838866,22.2878588,114.1384757
WUI KONG PHARMACY O/B OCEAN SIGHT LIMITED( 匯港大藥房 ),"FLAT 8 (260), G/F, KWONG FAT BUILDING, 260-276 SHA TSUI ROAD,TSUEN WAN,NT",TSUEN WAN,26148099,22.3697529,114.1162982
YAN CHAK PHARMACY LIMITED( 恩澤中西大藥房有限公司 ),"SHOP P10, SHEK MUN SHOPPING CENTRE, SHEK MUN ESTATE, SHATIN,NT",SHATIN,23853398,22.38749,114.208544
YAN CHEONG DISPENSARY O/B SANING LIMITED( 仁昌藥房 ),"G/F & M/F, 25 SAI TAI STREET,YUEN LONG,NT",YUEN LONG,24796178,22.4458498,114.0295228
YAN FOOK DISPENSARY( 仁福中西葯房 ),"G/F, ON NING BUILDING, 57 MUT WAH STREET,KWUN TONG,KLN",KWUN TONG,23435188,22.3153657,114.2254201
YAN HONG DISPENSARY LIMITED( 仁康中西藥房(香港)有限公司 ),"SHOP NO. UG80-81, UG/F, METRO CITY PHASE II, 8 YAN KING ROAD,TSEUNG KWAN O,NT",TSEUNG KWAN O,21410328,22.3231863,114.2577924
YAN HONG DISPENSARY O/B COUNTRY VAST LIMITED( 仁康藥房 ),"FLAT 107, 1/F, THE LANE, 15 PUI SHING ROAD,HANG HAU,NT",HANG HAU,21410168,22.315672,114.2648059
YAN OI TONG CHENG TING KONG CHARITY DRUG CENTRE O/B YAN OI TONG LIMITED( 仁愛堂鄭丁港善心藥物中心 ),"ROOM 13, G/F                                               , YAN OI TONG MRS SHIRLEY W.K. SIU MEDICAL CENTRE, YAN OI TONG JOCKEY CLUB COMMUNITY & SPORTS CENTRE, 18 KAI MAN PATH,TUEN MUN,NT",TUEN MUN,26557763,22.3965437,113.976043
YAN ON DISPENSARY COMPANY LIMITED( 仁安大藥房有限公司 ),"NO. 211, HENG ON COMMERCIAL CENTRE, HENG ON ESTATE, MA ON SHAN,NT",MA ON SHAN,26420313,22.4164585,114.2280913
YAN ON DISPENSARY O/B TAK HONG LIMITED( 仁安大藥房 ),"G/F, ON MAY MANSION, 597 SHANGHAI STREET,MONG KOK,KLN",MONG KOK,3188 1293,22.3188469,114.1680178
YAN ON DISPENSARY O/B YAN SANG HONG KONG LIMITED( 仁安大藥房 ),"G/F & COCKLOFT, YEE SHUEN MANSION, 50 TAI WAI ROAD,TAI WAI,NT",TAI WAI,35831988,22.3750013,114.1779735
YAN TAK PHARMACY O/B MIGO HONG KONG GROUP LIMITED( 仁德大藥房 ),"G/F, 60 ELECTRIC ROAD,TIN HAU,HK",TIN HAU,28873816,22.2837856,114.1919075
YAN WOO PHARMACY O/B PERFECT LEADER CORPORATION LIMITED( 仁和中西大藥房 ),"SHOP B, G/F, HUNG ON BUILDING, 2-4A KING'S ROAD,TIN HAU,HK",TIN HAU,25126733,22.2824007,114.1923543
YAN YAN DISPENSARY( 仁人中西藥房 ),"SHOP TC6, TIN CHAK SHOPPING MARKET, TIN SHUI WAI,NT",TIN SHUI WAI,24863613,22.4682969,113.99881
YAT SANG DISPENSARY O/B WIDE NATION LIMITED( 溢生藥房 ),"SHOP A2, G/F, KOON WONG MANSION, 2-18 ON NING ROAD,YUEN LONG,NT",YUEN LONG,28917808,22.4462453,114.0294276
YAT SING DISPENSARY LIMITED( 日昇大藥房有限公司 ),"G/F AND COCKLOFT, NO 90 CASTLE PEAK ROAD,YUEN LONG,NT",YUEN LONG,3622 3331,22.4442459,114.0298053
YAT TUNG PHARMACY COMPANY LIMITED( 逸東西藥房有限公司 ),"SHOP NO. 13, G/F, YAT TUNG SHOPPING CENTRE, YAT TUNG ESTATE, 8 YAT TUNG STREET,TUNG CHUNG,NT",TUNG CHUNG,28699999,22.281675,113.9348144
YAU MA TEI DISPENSARY LIMITED( 油麻地藥房有限公司 ),"SHOP C2, G/F, 41-47 PITT STREET,YAU MA TEI,KLN",YAU MA TEI,27700236,22.3139361,114.1699917
YEE ON DISPENSARY( 宜安大藥房 ),"G/F, YEE ON MANSION , 65 CHUN YEUNG STREET,NORTH POINT,HK",NORTH POINT,25714481,22.2912958,114.1969582
YIK ON PHARMACY O/B GOOD FAITH MEDICINE LIMITED( 益安中西藥房 ),"SHOP C, NO 7, G/F, JAT MIN CHUEN MARKET, JAT MIN CHUEN, SHATIN,NT",SHATIN,2898 8858,22.3765704,114.1917577
YING KWOK DISPENSARY( 英國藥房 ),"G/F, 272 LOCKHART ROAD,WAN CHAI,HK",WAN CHAI,25190487,22.2784886,114.1768768
YU CHENG PHARMACY LIMITED( 譽城藥房有限公司 ),"SHOP B2, G/F, FAR EAST CONSORTIUM MONGKOK BUILDING , 244 PORTLAND STREET,MONG KOK,KLN",MONG KOK,34883277,22.3185296,114.1690628
YUE FAT PHARMACY O/B PROSPEROUS WAY LIMITED( 裕發西藥房 ),"PART B OF SHOP 7, G/F & COCKLOFT, SHUN HING BUILDING , 1-3 YUEN LONG ON NING ROAD,YUEN LONG,NT",YUEN LONG,27838638,22.4457579,114.0295133
YUE HON DISPENSARY( 裕康大藥房 ),"ROOM 3A2, 1/F, TELFORD HOUSE , 16 WANG HOI ROAD,KOWLOON BAY,KLN",KOWLOON BAY,23928972,22.3229254,114.2110935
YUE MAN DISPENSARY( 裕民大藥房 ),"G/F, 136 SHANGHAI STREET,YAU MA TEI,KLN",YAU MA TEI,27630028,22.3064493,114.1696403
YURA'S SZE TAK CHEE DISPENSARY O/B YURA'S SZE TAK CHEE (INTERNATIONAL) COMPANY LIMITED( 耀華氏施德之大藥房 ),"GROUND FLOOR, 283 DES VOEUX ROAD CENTRAL,SHEUNG WAN,HK",SHEUNG WAN,25455544,22.2868209,114.1515091
順海國際大藥房 O/B SHUN HOI INTERNATIONAL UNION MEDICINE TRADING COMPANY LIMITED( 順海國際大藥房 ),"GROUND FLOOR AND MEZZANINE FLOOR, 168 MA TAU WAI ROAD,TO KWA WAN,KLN",TO KWA WAN,23639736,22.311843,114.1874672
